{"type": "FeatureCollection", "features": [{"type": "Feature", "geometry": {"type": "Polygon", "coordinates": [[[-0.122738, 51.511762], [-0.122669, 51.511793], [-0.122587, 51.511723], [-0.122651, 51.511693], [-0.122738, 51.511762]]]}, "properties": {"Class": "Retail", "Subclass": "Retaillg", "GoadNumber": "305080", "CentreCode": "9033MM", "Fascia": "", "Activity": "VACANT", "MiscText": "", "FasciaMas": "", "PrimaryAc": "VACANT", "SecondAc": "", "HoldingCo": "NON MULTIPLE", "TradingFls": 1, "StreetNum": "31", "StreetName": "THE MARKET, THE PIAZZA", "Postcode": "WC2E 8RE", "PrecName": "", "PrecID": "", "UseClass": "E/F.2", "Category": "VACANT RETAIL/SERVICE", "TradeType": "G4B", "SurveyDate": "2025-10-16", "PubDate": "2025-12-01", "Area_ft2": 600, "Area_m2": 60, "Centroid_X": "-0.122662", "Centroid_Y": "51.511743"}}, {"type": "Feature", "geometry": {"type": "Polygon", "coordinates": [[[-0.123227, 51.512121], [-0.123151, 51.512065], [-0.123274, 51.512008], [-0.123346, 51.512069], [-0.123227, 51.512121]]]}, "properties": {"Class": "Retail", "Subclass": "Retaillg", "GoadNumber": "334848", "CentreCode": "9033MM", "Fascia": "TOM FORD#BEAUTY", "Activity": "HLTH&BEA", "MiscText": "", "FasciaMas": "TOM FORD BEAUTY", "PrimaryAc": "HEALTH & BEAUTY", "SecondAc": "", "HoldingCo": "NON MULTIPLE", "TradingFls": 1, "StreetNum": "2 - 3", "StreetName": "THE MARKET, THE PIAZZA", "Postcode": "WC2E 8RA", "PrecName": "", "PrecID": "", "UseClass": "E/F.2", "Category": "TOILETRIES, COSMETICS & BEAUTY PRODUCTS", "TradeType": "G2K", "SurveyDate": "2025-10-16", "PubDate": "2025-12-01", "Area_ft2": 900, "Area_m2": 90, "Centroid_X": "-0.12325", "Centroid_Y": "51.512065"}}, {"type": "Feature", "geometry": {"type": "Polygon", "coordinates": [[[-0.126228, 51.51411], [-0.126253, 51.514129], [-0.126219, 51.514146], [-0.126192, 51.514159], [-0.126167, 51.514141], [-0.126228, 51.51411]]]}, "properties": {"Class": "Retail", "Subclass": "Retaillg", "GoadNumber": "2002272", "CentreCode": "9033MM", "Fascia": "", "Activity": "INDIAN#T/A", "MiscText": "", "FasciaMas": "KOLKATI", "PrimaryAc": "INDIAN TAKE AWAY", "SecondAc": "", "HoldingCo": "NON MULTIPLE", "TradingFls": 1, "StreetNum": "18", "StreetName": "SEVEN DIALS MARKET", "Postcode": "WC2H 9LD", "PrecName": "SEVEN DIALS MARKET", "PrecID": "4102", "UseClass": "ESG", "Category": "FAST FOOD & TAKE AWAY", "TradeType": "G3A", "SurveyDate": "2025-10-16", "PubDate": "2025-12-01", "Area_ft2": 200, "Area_m2": 10, "Centroid_X": "-0.12621", "Centroid_Y": "51.514135"}}, {"type": "Feature", "geometry": {"type": "Polygon", "coordinates": [[[-0.126059, 51.513893], [-0.126083, 51.51389], [-0.126092, 51.513918], [-0.126023, 51.513926], [-0.126014, 51.513898], [-0.126059, 51.513893]]]}, "properties": {"Class": "Retail", "Subclass": "Retaillg", "GoadNumber": "2002268", "CentreCode": "9033MM", "Fascia": "", "Activity": "CHINESE#REST", "MiscText": "", "FasciaMas": "YUM BUN", "PrimaryAc": "CHINESE RESTAURANT", "SecondAc": "", "HoldingCo": "NON MULTIPLE", "TradingFls": 1, "StreetNum": "12", "StreetName": "SEVEN DIALS MARKET", "Postcode": "WC2H 9LD", "PrecName": "SEVEN DIALS MARKET", "PrecID": "4102", "UseClass": "E", "Category": "RESTAURANTS", "TradeType": "G3A", "SurveyDate": "2025-10-16", "PubDate": "2025-12-01", "Area_ft2": 200, "Area_m2": 20, "Centroid_X": "-0.126053", "Centroid_Y": "51.513908"}}, {"type": "Feature", "geometry": {"type": "Polygon", "coordinates": [[[-0.122439, 51.512006], [-0.122505, 51.511974], [-0.122599, 51.512051], [-0.122527, 51.512084], [-0.122439, 51.512006]]]}, "properties": {"Class": "Retail", "Subclass": "Retaillg", "GoadNumber": "413124", "CentreCode": "9033MM", "Fascia": "", "Activity": "WHSE", "MiscText": "", "FasciaMas": "", "PrimaryAc": "WAREHOUSE", "SecondAc": "", "HoldingCo": "NON MULTIPLE", "TradingFls": 1, "StreetNum": "20A", "StreetName": "COVENT GARDEN MARKET, COVENT GARDEN", "Postcode": "WC2E 8BE", "PrecName": "", "PrecID": "", "UseClass": "B8", "Category": "WORKS, WAREHOUSES & FACTORIES", "TradeType": "", "SurveyDate": "2025-10-16", "PubDate": "2025-12-01", "Area_ft2": 700, "Area_m2": 60, "Centroid_X": "-0.122518", "Centroid_Y": "51.512029"}}, {"type": "Feature", "geometry": {"type": "Polygon", "coordinates": [[[-0.126023, 51.513926], [-0.125954, 51.513935], [-0.125945, 51.513907], [-0.126014, 51.513898], [-0.126023, 51.513926]]]}, "properties": {"Class": "Retail", "Subclass": "Retaillg", "GoadNumber": "2002269", "CentreCode": "9033MM", "Fascia": "", "Activity": "THAI#REST", "MiscText": "", "FasciaMas": "YAAY YAAY", "PrimaryAc": "THAI RESTAURANT", "SecondAc": "", "HoldingCo": "NON MULTIPLE", "TradingFls": 1, "StreetNum": "11", "StreetName": "SEVEN DIALS MARKET", "Postcode": "WC2H 9LD", "PrecName": "SEVEN DIALS MARKET", "PrecID": "4102", "UseClass": "E", "Category": "RESTAURANTS", "TradeType": "G3A", "SurveyDate": "2025-10-16", "PubDate": "2025-12-01", "Area_ft2": 200, "Area_m2": 20, "Centroid_X": "-0.125984", "Centroid_Y": "51.513916"}}, {"type": "Feature", "geometry": {"type": "Polygon", "coordinates": [[[-0.122528, 51.511857], [-0.122448, 51.511787], [-0.122522, 51.511753], [-0.122587, 51.511723], [-0.122669, 51.511793], [-0.122528, 51.511857]]]}, "properties": {"Class": "Retail", "Subclass": "Retaillg", "GoadNumber": "305077", "CentreCode": "9033MM", "Fascia": "", "Activity": "WAREHOUSE", "MiscText": "", "FasciaMas": "", "PrimaryAc": "WAREHOUSE", "SecondAc": "", "HoldingCo": "NON MULTIPLE", "TradingFls": 1, "StreetNum": "24", "StreetName": "THE MARKET, THE PIAZZA", "Postcode": "WC2E 8RD", "PrecName": "", "PrecID": "", "UseClass": "B8", "Category": "WORKS, WAREHOUSES & FACTORIES", "TradeType": "", "SurveyDate": "2025-10-16", "PubDate": "2025-12-01", "Area_ft2": 1200, "Area_m2": 120, "Centroid_X": "-0.122558", "Centroid_Y": "51.51179"}}, {"type": "Feature", "geometry": {"type": "Polygon", "coordinates": [[[-0.122527, 51.512084], [-0.122456, 51.512116], [-0.122365, 51.51204], [-0.122439, 51.512006], [-0.122527, 51.512084]]]}, "properties": {"Class": "Retail", "Subclass": "Retaillg", "GoadNumber": "334851", "CentreCode": "9033MM", "Fascia": "", "Activity": "VACANT", "MiscText": "", "FasciaMas": "", "PrimaryAc": "VACANT", "SecondAc": "", "HoldingCo": "NON MULTIPLE", "TradingFls": 2, "StreetNum": "20", "StreetName": "THE MARKET, THE PIAZZA", "Postcode": "WC2E 8RB", "PrecName": "", "PrecID": "", "UseClass": "E/F.2", "Category": "VACANT RETAIL/SERVICE", "TradeType": "G4B", "SurveyDate": "2025-10-16", "PubDate": "2025-12-01", "Area_ft2": 700, "Area_m2": 70, "Centroid_X": "-0.122446", "Centroid_Y": "51.512061"}}, {"type": "Feature", "geometry": {"type": "Polygon", "coordinates": [[[-0.122977, 51.511877], [-0.122908, 51.511909], [-0.122824, 51.511834], [-0.122891, 51.511804], [-0.122977, 51.511877]]]}, "properties": {"Class": "Retail", "Subclass": "Retaillg", "GoadNumber": "305076", "CentreCode": "9033MM", "Fascia": "", "Activity": "CONF & BIS", "MiscText": "", "FasciaMas": "FLOOZIE", "PrimaryAc": "CONFECTIONERY & BISCUITS", "SecondAc": "", "HoldingCo": "NON MULTIPLE", "TradingFls": 2, "StreetNum": "15", "StreetName": "THE MARKET, THE PIAZZA", "Postcode": "WC2E 8RB", "PrecName": "", "PrecID": "", "UseClass": "E/F.2", "Category": "BAKERS & CONFECTIONERS", "TradeType": "G1A", "SurveyDate": "2025-10-16", "PubDate": "2025-12-01", "Area_ft2": 600, "Area_m2": 60, "Centroid_X": "-0.1229", "Centroid_Y": "51.511856"}}, {"type": "Feature", "geometry": {"type": "Polygon", "coordinates": [[[-0.122742, 51.512346], [-0.122612, 51.512232], [-0.122669, 51.512205], [-0.122703, 51.512191], [-0.122837, 51.512302], [-0.122742, 51.512346]]]}, "properties": {"Class": "Retail", "Subclass": "Retaillg", "GoadNumber": "305070", "CentreCode": "9033MM", "Fascia": "CACHE CACHE", "Activity": "BAR", "MiscText": "", "FasciaMas": "CACHE CACHE", "PrimaryAc": "BAR", "SecondAc": "", "HoldingCo": "NON MULTIPLE", "TradingFls": 1, "StreetNum": "6", "StreetName": "THE MARKET, THE PIAZZA", "Postcode": "WC2E 8RA", "PrecName": "", "PrecID": "", "UseClass": "ESG", "Category": "BARS & WINE BARS", "TradeType": "", "SurveyDate": "2025-10-16", "PubDate": "2025-12-01", "Area_ft2": 1300, "Area_m2": 120, "Centroid_X": "-0.122724", "Centroid_Y": "51.512268"}}, {"type": "Feature", "geometry": {"type": "Polygon", "coordinates": [[[-0.122799, 51.511674], [-0.122757, 51.511693], [-0.122804, 51.511732], [-0.122738, 51.511762], [-0.122651, 51.511693], [-0.122764, 51.511643], [-0.122799, 51.511674]]]}, "properties": {"Class": "Retail", "Subclass": "Retaillg", "GoadNumber": "305081", "CentreCode": "9033MM", "Fascia": "", "Activity": "VAC#REST", "MiscText": "", "FasciaMas": "", "PrimaryAc": "VACANT RESTAURANT", "SecondAc": "", "HoldingCo": "NON MULTIPLE", "TradingFls": 1, "StreetNum": "30", "StreetName": "THE MARKET, THE PIAZZA", "Postcode": "WC2E 8RE", "PrecName": "", "PrecID": "", "UseClass": "E", "Category": "VACANT RETAIL/SERVICE", "TradeType": "G4B", "SurveyDate": "2025-10-16", "PubDate": "2025-12-01", "Area_ft2": 800, "Area_m2": 70, "Centroid_X": "-0.122735", "Centroid_Y": "51.511703"}}, {"type": "Feature", "geometry": {"type": "Polygon", "coordinates": [[[-0.122844, 51.511713], [-0.122799, 51.511674], [-0.122764, 51.511643], [-0.122836, 51.511611], [-0.122914, 51.511681], [-0.122844, 51.511713]]]}, "properties": {"Class": "Retail", "Subclass": "Retaillg", "GoadNumber": "305082", "CentreCode": "9033MM", "Fascia": "CREME DE#LA CREPE", "Activity": "RESTAURANT", "MiscText": "", "FasciaMas": "CREME DE LA CREPE", "PrimaryAc": "RESTAURANT", "SecondAc": "", "HoldingCo": "NON MULTIPLE", "TradingFls": 1, "StreetNum": "29", "StreetName": "THE MARKET, THE PIAZZA", "Postcode": "WC2E 8RE", "PrecName": "", "PrecID": "", "UseClass": "E", "Category": "RESTAURANTS", "TradeType": "G3A", "SurveyDate": "2025-10-16", "PubDate": "2025-12-01", "Area_ft2": 600, "Area_m2": 60, "Centroid_X": "-0.122839", "Centroid_Y": "51.511662"}}, {"type": "Feature", "geometry": {"type": "Polygon", "coordinates": [[[-0.12276, 51.511862], [-0.122824, 51.511834], [-0.122908, 51.511909], [-0.122849, 51.511936], [-0.122793, 51.511889], [-0.12276, 51.511862]]]}, "properties": {"Class": "Retail", "Subclass": "Retaillg", "GoadNumber": "305088", "CentreCode": "9033MM", "Fascia": "", "Activity": "VAC#TKAWY", "MiscText": "", "FasciaMas": "", "PrimaryAc": "VACANT TAKEAWAY", "SecondAc": "", "HoldingCo": "NON MULTIPLE", "TradingFls": 1, "StreetNum": "28", "StreetName": "THE MARKET, THE PIAZZA", "Postcode": "WC2E 8RE", "PrecName": "", "PrecID": "", "UseClass": "ESG", "Category": "VACANT RETAIL/SERVICE", "TradeType": "G4B", "SurveyDate": "2025-10-16", "PubDate": "2025-12-01", "Area_ft2": 600, "Area_m2": 50, "Centroid_X": "-0.122835", "Centroid_Y": "51.511885"}}, {"type": "Feature", "geometry": {"type": "Polygon", "coordinates": [[[-0.12623, 51.513901], [-0.126161, 51.51391], [-0.126153, 51.513882], [-0.126221, 51.513873], [-0.12623, 51.513901]]]}, "properties": {"Class": "Retail", "Subclass": "Retaillg", "GoadNumber": "2002266", "CentreCode": "9033MM", "Fascia": "LUCKY HOT CHICKEN", "Activity": "T/A", "MiscText": "", "FasciaMas": "LUCKY HOT CHICKEN", "PrimaryAc": "TAKE AWAY", "SecondAc": "", "HoldingCo": "NON MULTIPLE", "TradingFls": 1, "StreetNum": "14", "StreetName": "SEVEN DIALS MARKET", "Postcode": "WC2H 9LD", "PrecName": "SEVEN DIALS MARKET", "PrecID": "4102", "UseClass": "ESG", "Category": "FAST FOOD & TAKE AWAY", "TradeType": "G3A", "SurveyDate": "2025-10-16", "PubDate": "2025-12-01", "Area_ft2": 200, "Area_m2": 20, "Centroid_X": "-0.126191", "Centroid_Y": "51.513892"}}, {"type": "Feature", "geometry": {"type": "Polygon", "coordinates": [[[-0.125302, 51.508985], [-0.125343, 51.50901], [-0.125378, 51.509034], [-0.125396, 51.509045], [-0.125383, 51.50906], [-0.125383, 51.509099], [-0.125359, 51.509098], [-0.125249, 51.509026], [-0.125225, 51.509036], [-0.125202, 51.509021], [-0.125177, 51.509035], [-0.125145, 51.509013], [-0.125145, 51.509012], [-0.125109, 51.508983], [-0.125076, 51.508959], [-0.125132, 51.508929], [-0.125194, 51.508897], [-0.125317, 51.508978], [-0.125302, 51.508985]]]}, "properties": {"Class": "Retail", "Subclass": "Retaillg", "GoadNumber": "309347", "CentreCode": "9033MM", "Fascia": "", "Activity": "UNDER ALTERATION", "MiscText": "", "FasciaMas": "", "PrimaryAc": "UNDER ALTERATION", "SecondAc": "", "HoldingCo": "NON MULTIPLE", "TradingFls": 1, "StreetNum": "5B", "StreetName": "CHARING CROSS ARCADE, ADELAIDE STREET", "Postcode": "WC2N 4HZ", "PrecName": "CHARING CROSS ARCADE", "PrecID": "4106", "UseClass": "E/F.2", "Category": "VACANT RETAIL/SERVICE", "TradeType": "G4B", "SurveyDate": "2025-10-16", "PubDate": "2025-12-01", "Area_ft2": 2200, "Area_m2": 200, "Centroid_X": "-0.125238", "Centroid_Y": "51.508993"}}, {"type": "Feature", "geometry": {"type": "Polygon", "coordinates": [[[-0.122528, 51.511857], [-0.122425, 51.511903], [-0.122346, 51.511833], [-0.122448, 51.511787], [-0.122528, 51.511857]]]}, "properties": {"Class": "Retail", "Subclass": "Retaillg", "GoadNumber": "305079", "CentreCode": "9033MM", "Fascia": "TAPAS#STORIES", "Activity": "SPANISH#REST", "MiscText": "", "FasciaMas": "TAPAS STORIES", "PrimaryAc": "SPANISH RESTAURANT", "SecondAc": "", "HoldingCo": "NON MULTIPLE", "TradingFls": 1, "StreetNum": "32", "StreetName": "THE MARKET, THE PIAZZA", "Postcode": "WC2E 8RE", "PrecName": "", "PrecID": "", "UseClass": "E", "Category": "RESTAURANTS", "TradeType": "G3A", "SurveyDate": "2025-10-16", "PubDate": "2025-12-01", "Area_ft2": 900, "Area_m2": 80, "Centroid_X": "-0.122437", "Centroid_Y": "51.511845"}}, {"type": "Feature", "geometry": {"type": "Polygon", "coordinates": [[[-0.149383, 51.513916], [-0.149508, 51.513887], [-0.14952, 51.513907], [-0.149472, 51.513918], [-0.149394, 51.513936], [-0.149383, 51.513916]]]}, "properties": {"Class": "Retail", "Subclass": "Retaillg", "GoadNumber": "2001814", "CentreCode": "9033MM", "Fascia": "KAMMOON#EATS", "Activity": "TAKE AWAY", "MiscText": "", "FasciaMas": "KAMMOON EATS", "PrimaryAc": "TAKE AWAY", "SecondAc": "", "HoldingCo": "NON MULTIPLE", "TradingFls": 1, "StreetNum": "", "StreetName": "WEST ONE SHOPPING CENTRE, OXFORD STREET", "Postcode": "W1C 2JS", "PrecName": "WEST ONE SHOPPING CENTRE", "PrecID": "4104", "UseClass": "ESG", "Category": "FAST FOOD & TAKE AWAY", "TradeType": "G3A", "SurveyDate": "2025-10-16", "PubDate": "2025-12-01", "Area_ft2": 200, "Area_m2": 20, "Centroid_X": "-0.149451", "Centroid_Y": "51.513911"}}, {"type": "Feature", "geometry": {"type": "Polygon", "coordinates": [[[-0.126359, 51.513932], [-0.126356, 51.513919], [-0.12641, 51.513913], [-0.126502, 51.513981], [-0.126461, 51.514001], [-0.126478, 51.514016], [-0.126431, 51.51404], [-0.126331, 51.513964], [-0.126373, 51.513943], [-0.126359, 51.513932]]]}, "properties": {"Class": "Retail", "Subclass": "Retaillg", "GoadNumber": "2002264", "CentreCode": "9033MM", "Fascia": "MARKET#BOOKSHOP", "Activity": "", "MiscText": "", "FasciaMas": "MARKET BOOKSHOP", "PrimaryAc": "BOOKS", "SecondAc": "", "HoldingCo": "NON MULTIPLE", "TradingFls": 1, "StreetNum": "15", "StreetName": "SEVEN DIALS MARKET", "Postcode": "WC2H 9LD", "PrecName": "SEVEN DIALS MARKET", "PrecID": "4102", "UseClass": "E/F.2", "Category": "BOOKSELLERS", "TradeType": "G2F", "SurveyDate": "2025-10-16", "PubDate": "2025-12-01", "Area_ft2": 900, "Area_m2": 90, "Centroid_X": "-0.126416", "Centroid_Y": "51.513973"}}, {"type": "Feature", "geometry": {"type": "Polygon", "coordinates": [[[-0.134015, 51.510252], [-0.134048, 51.510275], [-0.134028, 51.51032], [-0.133938, 51.510317], [-0.133939, 51.510314], [-0.13394, 51.51031], [-0.13394, 51.510307], [-0.13394, 51.510303], [-0.134015, 51.510252]]]}, "properties": {"Class": "Retail", "Subclass": "Retaillg", "GoadNumber": "307416", "CentreCode": "9033MM", "Fascia": "", "Activity": "OFFICE", "MiscText": "", "FasciaMas": "", "PrimaryAc": "OFFICE", "SecondAc": "", "HoldingCo": "NON MULTIPLE", "TradingFls": 1, "StreetNum": "", "StreetName": "TROCADERO CENTRE, LONDON PAVILION", "Postcode": "W1J 0DA", "PrecName": "TROCADERO CENTRE", "PrecID": "4105", "UseClass": "E", "Category": "OFFICES", "TradeType": "", "SurveyDate": "2025-10-16", "PubDate": "2025-12-01", "Area_ft2": 400, "Area_m2": 30, "Centroid_X": "-0.133999", "Centroid_Y": "51.510293"}}, {"type": "Feature", "geometry": {"type": "Polygon", "coordinates": [[[-0.13324, 51.510752], [-0.133248, 51.510748], [-0.133252, 51.510741], [-0.133258, 51.510719], [-0.133277, 51.510745], [-0.133374, 51.510874], [-0.13327, 51.510905], [-0.133173, 51.510775], [-0.133186, 51.510771], [-0.13321, 51.510764], [-0.133225, 51.510759], [-0.13324, 51.510752]]]}, "properties": {"Class": "Retail", "Subclass": "Retaillg", "GoadNumber": "661547", "CentreCode": "9033MM", "Fascia": "", "Activity": "UND/ALTN", "MiscText": "", "FasciaMas": "", "PrimaryAc": "UNDER ALTERATION", "SecondAc": "", "HoldingCo": "NON MULTIPLE", "TradingFls": 1, "StreetNum": "", "StreetName": "TROCADERO CENTRE", "Postcode": "W1D 7DH", "PrecName": "TROCADERO CENTRE", "PrecID": "4105", "UseClass": "E/F.2", "Category": "VACANT RETAIL/SERVICE", "TradeType": "G4B", "SurveyDate": "2025-10-16", "PubDate": "2025-12-01", "Area_ft2": 1400, "Area_m2": 130, "Centroid_X": "-0.133273", "Centroid_Y": "51.510822"}}, {"type": "Feature", "geometry": {"type": "Polygon", "coordinates": [[[-0.126287, 51.514081], [-0.126311, 51.5141], [-0.126306, 51.514102], [-0.126253, 51.514129], [-0.126228, 51.51411], [-0.126287, 51.514081]]]}, "properties": {"Class": "Retail", "Subclass": "Retaillg", "GoadNumber": "2002271", "CentreCode": "9033MM", "Fascia": "", "Activity": "AMERICAN#REST", "MiscText": "", "FasciaMas": "LOS GORDOS", "PrimaryAc": "AMERICAN RESTAURANT", "SecondAc": "", "HoldingCo": "NON MULTIPLE", "TradingFls": 1, "StreetNum": "17", "StreetName": "SEVEN DIALS MARKET", "Postcode": "WC2H 9LD", "PrecName": "SEVEN DIALS MARKET", "PrecID": "4102", "UseClass": "E", "Category": "RESTAURANTS", "TradeType": "G3A", "SurveyDate": "2025-10-16", "PubDate": "2025-12-01", "Area_ft2": 100, "Area_m2": 10, "Centroid_X": "-0.126269", "Centroid_Y": "51.514105"}}, {"type": "Feature", "geometry": {"type": "Polygon", "coordinates": [[[-0.122477, 51.512135], [-0.12255, 51.512102], [-0.122669, 51.512205], [-0.122612, 51.512232], [-0.122575, 51.512249], [-0.122455, 51.512143], [-0.122477, 51.512135]]]}, "properties": {"Class": "Retail", "Subclass": "Retaillg", "GoadNumber": "305072", "CentreCode": "9033MM", "Fascia": "PENHALIGON`S", "Activity": "HEALTH & BEAUTY", "MiscText": "", "FasciaMas": "PENHALIGON`S", "PrimaryAc": "HEALTH & BEAUTY", "SecondAc": "", "HoldingCo": "NON MULTIPLE", "TradingFls": 2, "StreetNum": "13", "StreetName": "THE MARKET, THE PIAZZA", "Postcode": "WC2E 8RB", "PrecName": "", "PrecID": "", "UseClass": "E/F.2", "Category": "TOILETRIES, COSMETICS & BEAUTY PRODUCTS", "TradeType": "G2K", "SurveyDate": "2025-10-16", "PubDate": "2025-12-01", "Area_ft2": 1200, "Area_m2": 110, "Centroid_X": "-0.122563", "Centroid_Y": "51.512175"}}, {"type": "Feature", "geometry": {"type": "Polygon", "coordinates": [[[-0.133601, 51.51065], [-0.133586, 51.510587], [-0.133693, 51.510555], [-0.133772, 51.510711], [-0.133761, 51.510715], [-0.133774, 51.510732], [-0.133796, 51.51074], [-0.133539, 51.511013], [-0.133507, 51.510969], [-0.133404, 51.511], [-0.133424, 51.510941], [-0.133374, 51.510874], [-0.133277, 51.510745], [-0.133379, 51.510715], [-0.133601, 51.51065]]]}, "properties": {"Class": "Retail", "Subclass": "Retaillg", "GoadNumber": "321425", "CentreCode": "9033MM", "Fascia": "RUMBA", "Activity": "NIGHTCLUB", "MiscText": "", "FasciaMas": "RUMBA", "PrimaryAc": "NIGHTCLUB", "SecondAc": "", "HoldingCo": "NON MULTIPLE", "TradingFls": 2, "StreetNum": "12", "StreetName": "TROCADERO CENTRE", "Postcode": "W1D 7DH", "PrecName": "TROCADERO CENTRE", "PrecID": "4105", "UseClass": "UC", "Category": "DISCO, DANCE & NIGHTCLUBS", "TradeType": "", "SurveyDate": "2025-10-16", "PubDate": "2025-12-01", "Area_ft2": 9800, "Area_m2": 910, "Centroid_X": "-0.133553", "Centroid_Y": "51.510786"}}, {"type": "Feature", "geometry": {"type": "Polygon", "coordinates": [[[-0.125808, 51.514011], [-0.125837, 51.513996], [-0.125987, 51.514113], [-0.125958, 51.514127], [-0.125925, 51.514102], [-0.125808, 51.514011]]]}, "properties": {"Class": "Retail", "Subclass": "Retaillg", "GoadNumber": "2002265", "CentreCode": "9033MM", "Fascia": "", "Activity": "BAR", "MiscText": "", "FasciaMas": "WAREHOUSE BAR", "PrimaryAc": "BAR", "SecondAc": "", "HoldingCo": "NON MULTIPLE", "TradingFls": 1, "StreetNum": "10", "StreetName": "SEVEN DIALS MARKET", "Postcode": "WC2H 9LD", "PrecName": "SEVEN DIALS MARKET", "PrecID": "4102", "UseClass": "ESG", "Category": "BARS & WINE BARS", "TradeType": "", "SurveyDate": "2025-10-16", "PubDate": "2025-12-01", "Area_ft2": 500, "Area_m2": 40, "Centroid_X": "-0.125897", "Centroid_Y": "51.514062"}}, {"type": "Feature", "geometry": {"type": "Polygon", "coordinates": [[[-0.125274, 51.509178], [-0.125271, 51.509116], [-0.125311, 51.50909], [-0.125322, 51.509098], [-0.125383, 51.509099], [-0.125385, 51.509174], [-0.125386, 51.50925], [-0.125418, 51.50925], [-0.125419, 51.509293], [-0.125322, 51.509291], [-0.125324, 51.509248], [-0.125276, 51.509247], [-0.125274, 51.509178]]]}, "properties": {"Class": "Retail", "Subclass": "Retaillg", "GoadNumber": "319842", "CentreCode": "9033MM", "Fascia": "", "Activity": "OFFICE", "MiscText": "", "FasciaMas": "", "PrimaryAc": "OFFICE", "SecondAc": "", "HoldingCo": "NON MULTIPLE", "TradingFls": 1, "StreetNum": "", "StreetName": "CHARING CROSS ARCADE, ADELAIDE STREET", "Postcode": "WC2N 4HZ", "PrecName": "CHARING CROSS ARCADE", "PrecID": "4106", "UseClass": "E", "Category": "OFFICES", "TradeType": "", "SurveyDate": "2025-10-16", "PubDate": "2025-12-01", "Area_ft2": 1700, "Area_m2": 160, "Centroid_X": "-0.125338", "Centroid_Y": "51.509193"}}, {"type": "Feature", "geometry": {"type": "Polygon", "coordinates": [[[-0.122837, 51.512302], [-0.122703, 51.512191], [-0.12274, 51.512173], [-0.122818, 51.512137], [-0.122952, 51.51225], [-0.122837, 51.512302]]]}, "properties": {"Class": "Retail", "Subclass": "Retaillg", "GoadNumber": "373434", "CentreCode": "9033MM", "Fascia": "DECIEM", "Activity": "HLTH&BEA", "MiscText": "", "FasciaMas": "DECIEM", "PrimaryAc": "HEALTH & BEAUTY", "SecondAc": "", "HoldingCo": "NON MULTIPLE", "TradingFls": 2, "StreetNum": "5B", "StreetName": "THE MARKET, THE PIAZZA", "Postcode": "WC2E 8RA", "PrecName": "", "PrecID": "", "UseClass": "E/F.2", "Category": "TOILETRIES, COSMETICS & BEAUTY PRODUCTS", "TradeType": "G2K", "SurveyDate": "2025-10-16", "PubDate": "2025-12-01", "Area_ft2": 1700, "Area_m2": 150, "Centroid_X": "-0.122827", "Centroid_Y": "51.51222"}}, {"type": "Feature", "geometry": {"type": "Polygon", "coordinates": [[[-0.126347, 51.514051], [-0.126371, 51.51407], [-0.126353, 51.514079], [-0.126311, 51.5141], [-0.126287, 51.514081], [-0.126347, 51.514051]]]}, "properties": {"Class": "Retail", "Subclass": "Retaillg", "GoadNumber": "2002270", "CentreCode": "9033MM", "Fascia": "", "Activity": "T/A", "MiscText": "", "FasciaMas": "OH MY DOG", "PrimaryAc": "TAKE AWAY", "SecondAc": "", "HoldingCo": "NON MULTIPLE", "TradingFls": 1, "StreetNum": "16", "StreetName": "SEVEN DIALS MARKET", "Postcode": "WC2H 9LD", "PrecName": "SEVEN DIALS MARKET", "PrecID": "4102", "UseClass": "ESG", "Category": "FAST FOOD & TAKE AWAY", "TradeType": "G3A", "SurveyDate": "2025-10-16", "PubDate": "2025-12-01", "Area_ft2": 200, "Area_m2": 10, "Centroid_X": "-0.126329", "Centroid_Y": "51.514076"}}, {"type": "Feature", "geometry": {"type": "Polygon", "coordinates": [[[-0.123227, 51.512121], [-0.123117, 51.512169], [-0.123049, 51.51211], [-0.123151, 51.512065], [-0.123227, 51.512121]]]}, "properties": {"Class": "Retail", "Subclass": "Retaillg", "GoadNumber": "697766", "CentreCode": "9033MM", "Fascia": "STRATH#-BERRY", "Activity": "L ACCESS", "MiscText": "", "FasciaMas": "STRATHBERRY", "PrimaryAc": "LADIES ACCESSORIES", "SecondAc": "", "HoldingCo": "NON MULTIPLE", "TradingFls": 2, "StreetNum": "", "StreetName": "THE MARKET, THE PIAZZA", "Postcode": "WC2E 8RA", "PrecName": "", "PrecID": "", "UseClass": "E/F.2", "Category": "LADIES WEAR & ACCESSORIES", "TradeType": "G2C", "SurveyDate": "2025-10-16", "PubDate": "2025-12-01", "Area_ft2": 800, "Area_m2": 70, "Centroid_X": "-0.123136", "Centroid_Y": "51.512117"}}, {"type": "Feature", "geometry": {"type": "Polygon", "coordinates": [[[-0.133236, 51.510686], [-0.133239, 51.510685], [-0.133243, 51.510685], [-0.133246, 51.510685], [-0.133249, 51.510685], [-0.133251, 51.510685], [-0.133256, 51.510684], [-0.133267, 51.510681], [-0.133296, 51.51067], [-0.133306, 51.510665], [-0.133317, 51.510658], [-0.133326, 51.510652], [-0.13333, 51.51065], [-0.133379, 51.510715], [-0.133277, 51.510745], [-0.133258, 51.510719], [-0.133259, 51.510714], [-0.133249, 51.5107], [-0.133243, 51.510702], [-0.13324, 51.510702], [-0.133236, 51.510701], [-0.133232, 51.5107], [-0.133229, 51.510698], [-0.133228, 51.510697], [-0.133227, 51.510695], [-0.133228, 51.510693], [-0.133228, 51.510691], [-0.13323, 51.510689], [-0.133233, 51.510687], [-0.133236, 51.510686]]]}, "properties": {"Class": "Retail", "Subclass": "Retaillg", "GoadNumber": "321446", "CentreCode": "9033MM", "Fascia": "", "Activity": "UND/#ALTN", "MiscText": "", "FasciaMas": "", "PrimaryAc": "UNDER ALTERATION", "SecondAc": "", "HoldingCo": "NON MULTIPLE", "TradingFls": 1, "StreetNum": "", "StreetName": "TROCADERO CENTRE", "Postcode": "W1D 7DH", "PrecName": "TROCADERO CENTRE", "PrecID": "4105", "UseClass": "E/F.2", "Category": "VACANT RETAIL/SERVICE", "TradeType": "G4B", "SurveyDate": "2025-10-16", "PubDate": "2025-12-01", "Area_ft2": 600, "Area_m2": 60, "Centroid_X": "-0.133307", "Centroid_Y": "51.5107"}}, {"type": "Feature", "geometry": {"type": "Polygon", "coordinates": [[[-0.13298, 51.510679], [-0.132911, 51.510699], [-0.132878, 51.510709], [-0.13286, 51.510685], [-0.132961, 51.510653], [-0.13298, 51.510679]]]}, "properties": {"Class": "Retail", "Subclass": "Retaillg", "GoadNumber": "373561", "CentreCode": "9033MM", "Fascia": "", "Activity": "UND/ALTN", "MiscText": "", "FasciaMas": "", "PrimaryAc": "UNDER ALTERATION", "SecondAc": "", "HoldingCo": "NON MULTIPLE", "TradingFls": 1, "StreetNum": "", "StreetName": "TROCADERO CENTRE", "Postcode": "W1D 7DH", "PrecName": "TROCADERO CENTRE", "PrecID": "4105", "UseClass": "E/F.2", "Category": "VACANT RETAIL/SERVICE", "TradeType": "G4B", "SurveyDate": "2025-10-16", "PubDate": "2025-12-01", "Area_ft2": 300, "Area_m2": 20, "Centroid_X": "-0.13292", "Centroid_Y": "51.510681"}}, {"type": "Feature", "geometry": {"type": "Polygon", "coordinates": [[[-0.122793, 51.511889], [-0.122794, 51.51189], [-0.122833, 51.511923], [-0.122836, 51.511925], [-0.122849, 51.511936], [-0.122742, 51.511985], [-0.122599, 51.512051], [-0.122505, 51.511974], [-0.122585, 51.511938], [-0.122529, 51.511896], [-0.122601, 51.511863], [-0.122706, 51.511817], [-0.12276, 51.511862], [-0.12279, 51.511886], [-0.122791, 51.511887], [-0.122793, 51.511889]]]}, "properties": {"Class": "Retail", "Subclass": "Retaillg", "GoadNumber": "305075", "CentreCode": "9033MM", "Fascia": "COURTYARD#WINE CELLARS", "Activity": "BAR", "MiscText": "", "FasciaMas": "COURTYARD WINE CELLARS", "PrimaryAc": "BAR", "SecondAc": "", "HoldingCo": "NON MULTIPLE", "TradingFls": 2, "StreetNum": "17", "StreetName": "THE MARKET, THE PIAZZA", "Postcode": "WC2E 8RB", "PrecName": "", "PrecID": "", "UseClass": "ESG", "Category": "BARS & WINE BARS", "TradeType": "", "SurveyDate": "2025-10-16", "PubDate": "2025-12-01", "Area_ft2": 3500, "Area_m2": 320, "Centroid_X": "-0.122668", "Centroid_Y": "51.511933"}}, {"type": "Feature", "geometry": {"type": "Polygon", "coordinates": [[[-0.122575, 51.512249], [-0.12244, 51.512312], [-0.122211, 51.512118], [-0.122348, 51.512055], [-0.122341, 51.51205], [-0.122365, 51.51204], [-0.122456, 51.512116], [-0.122477, 51.512135], [-0.122455, 51.512143], [-0.122575, 51.512249]]]}, "properties": {"Class": "Retail", "Subclass": "Retaillg", "GoadNumber": "305086", "CentreCode": "9033MM", "Fascia": "", "Activity": "STORE", "MiscText": "", "FasciaMas": "", "PrimaryAc": "STORE", "SecondAc": "", "HoldingCo": "NON MULTIPLE", "TradingFls": 1, "StreetNum": "", "StreetName": "THE MARKET, THE PIAZZA", "Postcode": "WC2E 8RB", "PrecName": "", "PrecID": "", "UseClass": "B8", "Category": "ENTRANCE & STORES", "TradeType": "", "SurveyDate": "2025-10-16", "PubDate": "2025-12-01", "Area_ft2": 3700, "Area_m2": 340, "Centroid_X": "-0.122395", "Centroid_Y": "51.512176"}}, {"type": "Feature", "geometry": {"type": "Polygon", "coordinates": [[[-0.133069, 51.511035], [-0.133051, 51.51104], [-0.133068, 51.511064], [-0.132929, 51.5111], [-0.132812, 51.510948], [-0.132792, 51.510954], [-0.132779, 51.510957], [-0.132647, 51.510787], [-0.132675, 51.510777], [-0.13268, 51.510783], [-0.132737, 51.510853], [-0.132878, 51.51081], [-0.132993, 51.510963], [-0.133011, 51.510958], [-0.133069, 51.511035]]]}, "properties": {"Class": "Retail", "Subclass": "Retaillg", "GoadNumber": "338743", "CentreCode": "9033MM", "Fascia": "", "Activity": "UNDER ALTERATION", "MiscText": "", "FasciaMas": "", "PrimaryAc": "UNDER ALTERATION", "SecondAc": "", "HoldingCo": "NON MULTIPLE", "TradingFls": 1, "StreetNum": "", "StreetName": "TROCADERO CENTRE", "Postcode": "W1D 7DH", "PrecName": "TROCADERO CENTRE", "PrecID": "4105", "UseClass": "E/F.2", "Category": "VACANT RETAIL/SERVICE", "TradeType": "G4B", "SurveyDate": "2025-10-16", "PubDate": "2025-12-01", "Area_ft2": 4200, "Area_m2": 390, "Centroid_X": "-0.132885", "Centroid_Y": "51.510946"}}, {"type": "Feature", "geometry": {"type": "Polygon", "coordinates": [[[-0.125837, 51.513996], [-0.125814, 51.514008], [-0.125808, 51.514011], [-0.12586, 51.514051], [-0.125925, 51.514102], [-0.125785, 51.514172], [-0.125644, 51.514245], [-0.125595, 51.514209], [-0.125548, 51.514175], [-0.1255, 51.51414], [-0.125451, 51.514105], [-0.125317, 51.514008], [-0.125325, 51.513984], [-0.125501, 51.513961], [-0.125582, 51.513951], [-0.12559, 51.51395], [-0.125635, 51.513944], [-0.125643, 51.513943], [-0.125667, 51.51394], [-0.125712, 51.513935], [-0.125717, 51.513934], [-0.125823, 51.513921], [-0.125851, 51.513988], [-0.125837, 51.513996]]]}, "properties": {"Class": "Retail", "Subclass": "Retaillg", "GoadNumber": "305098", "CentreCode": "9033MM", "Fascia": "FLESH & BUNS", "Activity": "ASIAN RESTAURANT", "MiscText": "", "FasciaMas": "FLESH & BUNS", "PrimaryAc": "ASIAN RESTAURANT", "SecondAc": "", "HoldingCo": "NON MULTIPLE", "TradingFls": 1, "StreetNum": "", "StreetName": "SEVEN DIALS MARKET", "Postcode": "WC2H 9LD", "PrecName": "SEVEN DIALS MARKET", "PrecID": "4102", "UseClass": "E", "Category": "RESTAURANTS", "TradeType": "G3A", "SurveyDate": "2025-10-16", "PubDate": "2025-12-01", "Area_ft2": 9000, "Area_m2": 840, "Centroid_X": "-0.12564", "Centroid_Y": "51.514064"}}, {"type": "Feature", "geometry": {"type": "Polygon", "coordinates": [[[-0.12215, 51.511922], [-0.12218, 51.511907], [-0.122206, 51.511929], [-0.122237, 51.511957], [-0.12226, 51.511978], [-0.122341, 51.51205], [-0.122348, 51.512055], [-0.122311, 51.512072], [-0.122211, 51.512118], [-0.122182, 51.512095], [-0.122181, 51.512096], [-0.12218, 51.512096], [-0.122116, 51.512126], [-0.12208, 51.512143], [-0.122018, 51.512091], [-0.122055, 51.512073], [-0.122102, 51.51205], [-0.122092, 51.512041], [-0.122067, 51.512052], [-0.122061, 51.512046], [-0.122012, 51.511998], [-0.122014, 51.511997], [-0.122056, 51.511976], [-0.122051, 51.511972], [-0.122049, 51.51197], [-0.121996, 51.511923], [-0.122091, 51.511882], [-0.122141, 51.511922], [-0.122145, 51.511925], [-0.122146, 51.511924], [-0.12215, 51.511922]]]}, "properties": {"Class": "Retail", "Subclass": "Retaillg", "GoadNumber": "305087", "CentreCode": "9033MM", "Fascia": "THE CRUSTING PIPE", "Activity": "BAR", "MiscText": "", "FasciaMas": "THE CRUSTING PIPE", "PrimaryAc": "BAR", "SecondAc": "", "HoldingCo": "NON MULTIPLE", "TradingFls": 1, "StreetNum": "27", "StreetName": "THE MARKET, THE PIAZZA", "Postcode": "WC2E 8RD", "PrecName": "", "PrecID": "", "UseClass": "ESG", "Category": "BARS & WINE BARS", "TradeType": "", "SurveyDate": "2025-10-16", "PubDate": "2025-12-01", "Area_ft2": 4100, "Area_m2": 380, "Centroid_X": "-0.122153", "Centroid_Y": "51.512015"}}, {"type": "Feature", "geometry": {"type": "Polygon", "coordinates": [[[-0.122914, 51.511681], [-0.122887, 51.511657], [-0.122854, 51.511627], [-0.122836, 51.511611], [-0.122877, 51.511593], [-0.122878, 51.511592], [-0.122883, 51.51159], [-0.122888, 51.511588], [-0.122904, 51.51158], [-0.122885, 51.511563], [-0.122857, 51.511537], [-0.122961, 51.51149], [-0.12299, 51.511515], [-0.12295, 51.511535], [-0.122971, 51.511554], [-0.122973, 51.511556], [-0.123013, 51.511537], [-0.123015, 51.511539], [-0.123069, 51.511584], [-0.123029, 51.511604], [-0.123035, 51.511609], [-0.123081, 51.511648], [-0.123008, 51.511679], [-0.123061, 51.511728], [-0.122999, 51.511755], [-0.122914, 51.511681]]]}, "properties": {"Class": "Retail", "Subclass": "Retaillg", "GoadNumber": "334852", "CentreCode": "9033MM", "Fascia": "VYTA", "Activity": "ITALIAN REST", "MiscText": "", "FasciaMas": "VYTA", "PrimaryAc": "ITALIAN RESTAURANT", "SecondAc": "", "HoldingCo": "NON MULTIPLE", "TradingFls": 1, "StreetNum": "", "StreetName": "THE MARKET, THE PIAZZA", "Postcode": "WC2E 8RB", "PrecName": "", "PrecID": "", "UseClass": "E", "Category": "RESTAURANTS", "TradeType": "G3A", "SurveyDate": "2025-10-16", "PubDate": "2025-12-01", "Area_ft2": 2700, "Area_m2": 250, "Centroid_X": "-0.122964", "Centroid_Y": "51.51162"}}, {"type": "Feature", "geometry": {"type": "Polygon", "coordinates": [[[-0.122425, 51.511903], [-0.122354, 51.511936], [-0.122271, 51.511867], [-0.122346, 51.511833], [-0.122425, 51.511903]]]}, "properties": {"Class": "Retail", "Subclass": "Retaillg", "GoadNumber": "305089", "CentreCode": "9033MM", "Fascia": "THE WINE#PLACE", "Activity": "BAR", "MiscText": "", "FasciaMas": "THE WINE PLACE", "PrimaryAc": "BAR", "SecondAc": "", "HoldingCo": "NON MULTIPLE", "TradingFls": 1, "StreetNum": "33", "StreetName": "THE MARKET, THE PIAZZA", "Postcode": "WC2E 8RE", "PrecName": "", "PrecID": "", "UseClass": "ESG", "Category": "BARS & WINE BARS", "TradeType": "", "SurveyDate": "2025-10-16", "PubDate": "2025-12-01", "Area_ft2": 600, "Area_m2": 60, "Centroid_X": "-0.122349", "Centroid_Y": "51.511885"}}, {"type": "Feature", "geometry": {"type": "Polygon", "coordinates": [[[-0.125578, 51.509216], [-0.12576, 51.50922], [-0.12576, 51.509343], [-0.12568, 51.509344], [-0.125682, 51.509376], [-0.125552, 51.509377], [-0.125552, 51.509379], [-0.125482, 51.509379], [-0.125479, 51.509223], [-0.12553, 51.509224], [-0.12553, 51.509216], [-0.125578, 51.509216]]]}, "properties": {"Class": "Retail", "Subclass": "Retaillg", "GoadNumber": "309341", "CentreCode": "9033MM", "Fascia": "", "Activity": "UNDER#ALTERATION", "MiscText": "", "FasciaMas": "", "PrimaryAc": "UNDER ALTERATION", "SecondAc": "", "HoldingCo": "NON MULTIPLE", "TradingFls": 1, "StreetNum": "21", "StreetName": "CHARING CROSS ARCADE, ADELAIDE STREET", "Postcode": "WC2N 4HZ", "PrecName": "CHARING CROSS ARCADE", "PrecID": "4106", "UseClass": "E/F.2", "Category": "VACANT RETAIL/SERVICE", "TradeType": "G4B", "SurveyDate": "2025-10-16", "PubDate": "2025-12-01", "Area_ft2": 3500, "Area_m2": 320, "Centroid_X": "-0.125614", "Centroid_Y": "51.509294"}}, {"type": "Feature", "geometry": {"type": "Polygon", "coordinates": [[[-0.133755, 51.510332], [-0.133761, 51.510338], [-0.133769, 51.510345], [-0.133693, 51.510367], [-0.133646, 51.510303], [-0.133679, 51.510293], [-0.133703, 51.510285], [-0.133751, 51.510242], [-0.133814, 51.510243], [-0.133804, 51.510248], [-0.133795, 51.510252], [-0.133786, 51.510256], [-0.133776, 51.510261], [-0.133768, 51.510267], [-0.133762, 51.510272], [-0.133755, 51.510279], [-0.133751, 51.510285], [-0.133747, 51.510293], [-0.133744, 51.510301], [-0.133745, 51.510308], [-0.133747, 51.510318], [-0.13375, 51.510323], [-0.133752, 51.510326], [-0.133755, 51.510332]]]}, "properties": {"Class": "Retail", "Subclass": "Retaillg", "GoadNumber": "307418", "CentreCode": "9033MM", "Fascia": "", "Activity": "VAC-#LEIS", "MiscText": "", "FasciaMas": "", "PrimaryAc": "VACANT LEISURE", "SecondAc": "", "HoldingCo": "NON MULTIPLE", "TradingFls": 1, "StreetNum": "2", "StreetName": "TROCADERO CENTRE, LONDON PAVILION", "Postcode": "W1J 0DA", "PrecName": "TROCADERO CENTRE", "PrecID": "4105", "UseClass": "F.2", "Category": "VACANT RETAIL/SERVICE", "TradeType": "G4B", "SurveyDate": "2025-10-16", "PubDate": "2025-12-01", "Area_ft2": 700, "Area_m2": 60, "Centroid_X": "-0.13372", "Centroid_Y": "51.510307"}}, {"type": "Feature", "geometry": {"type": "Polygon", "coordinates": [[[-0.149224, 51.513868], [-0.149258, 51.51394], [-0.149212, 51.514], [-0.149174, 51.513986], [-0.149164, 51.513965], [-0.149121, 51.513974], [-0.149117, 51.513967], [-0.14913, 51.513963], [-0.149096, 51.513891], [-0.149224, 51.513868]]]}, "properties": {"Class": "Retail", "Subclass": "Retaillg", "GoadNumber": "308370", "CentreCode": "9033MM", "Fascia": "ISMASH", "Activity": "TEL", "MiscText": "", "FasciaMas": "ISMASH", "PrimaryAc": "TELEPHONES", "SecondAc": "", "HoldingCo": "NON MULTIPLE", "TradingFls": 1, "StreetNum": "13", "StreetName": "WEST ONE SHOPPING CENTRE, OXFORD STREET", "Postcode": "W1C 2JS", "PrecName": "WEST ONE SHOPPING CENTRE", "PrecID": "4104", "UseClass": "E/F.2", "Category": "TELEPHONES & ACCESSORIES", "TradeType": "G2G", "SurveyDate": "2025-10-16", "PubDate": "2025-12-01", "Area_ft2": 1100, "Area_m2": 100, "Centroid_X": "-0.149182", "Centroid_Y": "51.513929"}}, {"type": "Feature", "geometry": {"type": "Polygon", "coordinates": [[[-0.122291, 51.511965], [-0.122208, 51.511895], [-0.122271, 51.511867], [-0.122354, 51.511936], [-0.122291, 51.511965]]]}, "properties": {"Class": "Retail", "Subclass": "Retaillg", "GoadNumber": "542213", "CentreCode": "9033MM", "Fascia": "PINTXITO", "Activity": "SPANISH REST", "MiscText": "", "FasciaMas": "PINTXITO", "PrimaryAc": "SPANISH RESTAURANT", "SecondAc": "", "HoldingCo": "NON MULTIPLE", "TradingFls": 1, "StreetNum": "34", "StreetName": "THE MARKET, THE PIAZZA", "Postcode": "WC2E 8RE", "PrecName": "", "PrecID": "", "UseClass": "E", "Category": "RESTAURANTS", "TradeType": "G3A", "SurveyDate": "2025-10-16", "PubDate": "2025-12-01", "Area_ft2": 600, "Area_m2": 50, "Centroid_X": "-0.122281", "Centroid_Y": "51.511916"}}, {"type": "Feature", "geometry": {"type": "Polygon", "coordinates": [[[-0.125785, 51.514172], [-0.125925, 51.514102], [-0.125958, 51.514127], [-0.125987, 51.514113], [-0.126022, 51.514095], [-0.126135, 51.514188], [-0.125941, 51.514286], [-0.1258, 51.514357], [-0.12575, 51.514321], [-0.125697, 51.514283], [-0.125644, 51.514245], [-0.125785, 51.514172]]]}, "properties": {"Class": "Retail", "Subclass": "Retaillg", "GoadNumber": "305095", "CentreCode": "9033MM", "Fascia": "SUBDUED", "Activity": "CLOTHING", "MiscText": "", "FasciaMas": "SUBDUED", "PrimaryAc": "CLOTHING", "SecondAc": "", "HoldingCo": "NON MULTIPLE", "TradingFls": 2, "StreetNum": "", "StreetName": "SEVEN DIALS MARKET", "Postcode": "WC2H 9LD", "PrecName": "SEVEN DIALS MARKET", "PrecID": "4102", "UseClass": "E/F.2", "Category": "CLOTHING GENERAL", "TradeType": "G2D", "SurveyDate": "2025-10-16", "PubDate": "2025-12-01", "Area_ft2": 5200, "Area_m2": 480, "Centroid_X": "-0.125888", "Centroid_Y": "51.514219"}}, {"type": "Feature", "geometry": {"type": "Polygon", "coordinates": [[[-0.123422, 51.511946], [-0.123469, 51.511925], [-0.123476, 51.511931], [-0.123516, 51.511967], [-0.123474, 51.511985], [-0.12348, 51.51199], [-0.123495, 51.512002], [-0.123396, 51.512047], [-0.123346, 51.512069], [-0.123274, 51.512008], [-0.123311, 51.511991], [-0.123288, 51.511973], [-0.123398, 51.511925], [-0.123419, 51.511943], [-0.123422, 51.511946]]]}, "properties": {"Class": "Retail", "Subclass": "Retaillg", "GoadNumber": "334853", "CentreCode": "9033MM", "Fascia": "", "Activity": "OFFICE", "MiscText": "", "FasciaMas": "", "PrimaryAc": "OFFICE", "SecondAc": "", "HoldingCo": "NON MULTIPLE", "TradingFls": 1, "StreetNum": "1", "StreetName": "THE MARKET, THE PIAZZA", "Postcode": "WC2E 8RA", "PrecName": "", "PrecID": "", "UseClass": "E", "Category": "OFFICES", "TradeType": "", "SurveyDate": "2025-10-16", "PubDate": "2025-12-01", "Area_ft2": 1600, "Area_m2": 150, "Centroid_X": "-0.123391", "Centroid_Y": "51.511991"}}, {"type": "Feature", "geometry": {"type": "Polygon", "coordinates": [[[-0.122975, 51.512239], [-0.122952, 51.51225], [-0.122818, 51.512137], [-0.122841, 51.512126], [-0.122944, 51.512078], [-0.123005, 51.51213], [-0.122996, 51.512134], [-0.123069, 51.512196], [-0.122975, 51.512239]]]}, "properties": {"Class": "Retail", "Subclass": "Retaillg", "GoadNumber": "305071", "CentreCode": "9033MM", "Fascia": "DOLCE &#GABBANA", "Activity": "L/WR&M/WR", "MiscText": "", "FasciaMas": "DOLCE & GABBANA", "PrimaryAc": "LADIES & MENS WEAR", "SecondAc": "", "HoldingCo": "DOLCE & GABBANA", "TradingFls": 2, "StreetNum": "4A - 5", "StreetName": "THE MARKET, THE PIAZZA", "Postcode": "WC2E 8RA", "PrecName": "", "PrecID": "", "UseClass": "E/F.2", "Category": "LADIES & MENS WEAR & ACC.", "TradeType": "G2D", "SurveyDate": "2025-10-16", "PubDate": "2025-12-01", "Area_ft2": 1800, "Area_m2": 160, "Centroid_X": "-0.122944", "Centroid_Y": "51.512164"}}, {"type": "Feature", "geometry": {"type": "Polygon", "coordinates": [[[-0.149271, 51.51375], [-0.149271, 51.513751], [-0.149346, 51.513879], [-0.149305, 51.51389], [-0.149258, 51.51394], [-0.149224, 51.513868], [-0.149096, 51.513891], [-0.149049, 51.513793], [-0.149148, 51.513773], [-0.149228, 51.513758], [-0.149271, 51.51375]]]}, "properties": {"Class": "Retail", "Subclass": "Retaillg", "GoadNumber": "308369", "CentreCode": "9033MM", "Fascia": "HOLLAND &#BARRETT", "Activity": "HEALTH FOOD", "MiscText": "", "FasciaMas": "HOLLAND & BARRETT", "PrimaryAc": "HEALTH FOOD", "SecondAc": "", "HoldingCo": "NBTY INC", "TradingFls": 1, "StreetNum": "12", "StreetName": "WEST ONE SHOPPING CENTRE, OXFORD STREET", "Postcode": "W1C 2JS", "PrecName": "WEST ONE SHOPPING CENTRE", "PrecID": "4104", "UseClass": "E/F.2", "Category": "HEALTH FOODS", "TradeType": "G1D", "SurveyDate": "2025-10-16", "PubDate": "2025-12-01", "Area_ft2": 2500, "Area_m2": 230, "Centroid_X": "-0.149203", "Centroid_Y": "51.513832"}}, {"type": "Feature", "geometry": {"type": "Polygon", "coordinates": [[[-0.122818, 51.512137], [-0.12274, 51.512173], [-0.12262, 51.512069], [-0.12272, 51.512023], [-0.122841, 51.512126], [-0.122818, 51.512137]]]}, "properties": {"Class": "Retail", "Subclass": "Retaillg", "GoadNumber": "346103", "CentreCode": "9033MM", "Fascia": "MILLER HARRIS", "Activity": "HLTH&BEA", "MiscText": "", "FasciaMas": "MILLER HARRIS", "PrimaryAc": "HEALTH & BEAUTY", "SecondAc": "", "HoldingCo": "NON MULTIPLE", "TradingFls": 2, "StreetNum": "11", "StreetName": "THE MARKET, THE PIAZZA", "Postcode": "WC2E 8RB", "PrecName": "", "PrecID": "", "UseClass": "E/F.2", "Category": "TOILETRIES, COSMETICS & BEAUTY PRODUCTS", "TradeType": "G2K", "SurveyDate": "2025-10-16", "PubDate": "2025-12-01", "Area_ft2": 1300, "Area_m2": 120, "Centroid_X": "-0.12273", "Centroid_Y": "51.512098"}}, {"type": "Feature", "geometry": {"type": "Polygon", "coordinates": [[[-0.122669, 51.512205], [-0.12255, 51.512102], [-0.12262, 51.512069], [-0.12274, 51.512173], [-0.122703, 51.512191], [-0.122669, 51.512205]]]}, "properties": {"Class": "Retail", "Subclass": "Retaillg", "GoadNumber": "305084", "CentreCode": "9033MM", "Fascia": "NEUHAUS", "Activity": "CONF & BIS", "MiscText": "", "FasciaMas": "NEUHAUS", "PrimaryAc": "CONFECTIONERY & BISCUITS", "SecondAc": "", "HoldingCo": "NON MULTIPLE", "TradingFls": 2, "StreetNum": "12", "StreetName": "THE MARKET, THE PIAZZA", "Postcode": "WC2E 8RB", "PrecName": "", "PrecID": "", "UseClass": "E/F.2", "Category": "BAKERS & CONFECTIONERS", "TradeType": "G1A", "SurveyDate": "2025-10-16", "PubDate": "2025-12-01", "Area_ft2": 900, "Area_m2": 90, "Centroid_X": "-0.122645", "Centroid_Y": "51.512137"}}, {"type": "Feature", "geometry": {"type": "Polygon", "coordinates": [[[-0.133865, 51.510174], [-0.133897, 51.510175], [-0.133926, 51.510176], [-0.133969, 51.510203], [-0.133968, 51.510213], [-0.133969, 51.510221], [-0.13397, 51.510224], [-0.133939, 51.510246], [-0.133859, 51.510244], [-0.133859, 51.510239], [-0.133865, 51.510174]]]}, "properties": {"Class": "Retail", "Subclass": "Retaillg", "GoadNumber": "307417", "CentreCode": "9033MM", "Fascia": "", "Activity": "OFFICE", "MiscText": "", "FasciaMas": "", "PrimaryAc": "OFFICE", "SecondAc": "", "HoldingCo": "NON MULTIPLE", "TradingFls": 1, "StreetNum": "1", "StreetName": "TROCADERO CENTRE, LONDON PAVILION", "Postcode": "W1J 0DA", "PrecName": "TROCADERO CENTRE", "PrecID": "4105", "UseClass": "E", "Category": "OFFICES", "TradeType": "", "SurveyDate": "2025-10-16", "PubDate": "2025-12-01", "Area_ft2": 500, "Area_m2": 50, "Centroid_X": "-0.13391", "Centroid_Y": "51.510212"}}, {"type": "Feature", "geometry": {"type": "Polygon", "coordinates": [[[-0.126656, 51.51382], [-0.126665, 51.513858], [-0.126628, 51.513878], [-0.126604, 51.513881], [-0.126598, 51.513865], [-0.126401, 51.513887], [-0.12639, 51.513853], [-0.126656, 51.51382]]]}, "properties": {"Class": "Retail", "Subclass": "Retaillg", "GoadNumber": "442340", "CentreCode": "9033MM", "Fascia": "THE ESCAPOLOGIST", "Activity": "BAR", "MiscText": "", "FasciaMas": "THE ESCAPOLOGIST", "PrimaryAc": "BAR", "SecondAc": "", "HoldingCo": "NON MULTIPLE", "TradingFls": 2, "StreetNum": "", "StreetName": "SEVEN DIALS MARKET", "Postcode": "WC2H 9LD", "PrecName": "SEVEN DIALS MARKET", "PrecID": "4102", "UseClass": "ESG", "Category": "BARS & WINE BARS", "TradeType": "", "SurveyDate": "2025-10-16", "PubDate": "2025-12-01", "Area_ft2": 900, "Area_m2": 80, "Centroid_X": "-0.126537", "Centroid_Y": "51.513855"}}, {"type": "Feature", "geometry": {"type": "Polygon", "coordinates": [[[-0.149492, 51.513708], [-0.149558, 51.513695], [-0.149609, 51.513805], [-0.149586, 51.513849], [-0.149563, 51.513846], [-0.149492, 51.513708]]]}, "properties": {"Class": "Retail", "Subclass": "Retaillg", "GoadNumber": "308365", "CentreCode": "9033MM", "Fascia": "SMART LOOK", "Activity": "BEAU SAL", "MiscText": "", "FasciaMas": "SMART LOOK", "PrimaryAc": "BEAUTY SALON", "SecondAc": "", "HoldingCo": "NON MULTIPLE", "TradingFls": 1, "StreetNum": "8", "StreetName": "WEST ONE SHOPPING CENTRE, OXFORD STREET", "Postcode": "W1C 2JS", "PrecName": "WEST ONE SHOPPING CENTRE", "PrecID": "4104", "UseClass": "E/F.2", "Category": "HEALTH & BEAUTY", "TradeType": "G3B", "SurveyDate": "2025-10-16", "PubDate": "2025-12-01", "Area_ft2": 700, "Area_m2": 70, "Centroid_X": "-0.149556", "Centroid_Y": "51.513767"}}, {"type": "Feature", "geometry": {"type": "Polygon", "coordinates": [[[-0.125526, 51.509118], [-0.125526, 51.509138], [-0.12558, 51.509139], [-0.125578, 51.509196], [-0.125478, 51.509196], [-0.125477, 51.509137], [-0.125477, 51.5091], [-0.125523, 51.5091], [-0.125526, 51.509118]]]}, "properties": {"Class": "Retail", "Subclass": "Retaillg", "GoadNumber": "309343", "CentreCode": "9033MM", "Fascia": "", "Activity": "UND/ALTN", "MiscText": "", "FasciaMas": "", "PrimaryAc": "UNDER ALTERATION", "SecondAc": "", "HoldingCo": "NON MULTIPLE", "TradingFls": 1, "StreetNum": "20", "StreetName": "CHARING CROSS ARCADE, ADELAIDE STREET", "Postcode": "WC2N 4HZ", "PrecName": "CHARING CROSS ARCADE", "PrecID": "4106", "UseClass": "E/F.2", "Category": "VACANT RETAIL/SERVICE", "TradeType": "G4B", "SurveyDate": "2025-10-16", "PubDate": "2025-12-01", "Area_ft2": 600, "Area_m2": 60, "Centroid_X": "-0.125522", "Centroid_Y": "51.509156"}}, {"type": "Feature", "geometry": {"type": "Polygon", "coordinates": [[[-0.149346, 51.513879], [-0.149271, 51.51375], [-0.149492, 51.513708], [-0.149563, 51.513846], [-0.149485, 51.513847], [-0.149346, 51.513879]]]}, "properties": {"Class": "Retail", "Subclass": "Retaillg", "GoadNumber": "308366", "CentreCode": "9033MM", "Fascia": "SUPERDRUG", "Activity": "HEALTH &#BEAUTY", "MiscText": "", "FasciaMas": "SUPERDRUG", "PrimaryAc": "HEALTH & BEAUTY", "SecondAc": "", "HoldingCo": "AS WATSON", "TradingFls": 1, "StreetNum": "9 - 11", "StreetName": "WEST ONE SHOPPING CENTRE, OXFORD STREET", "Postcode": "W1C 2JS", "PrecName": "WEST ONE SHOPPING CENTRE", "PrecID": "4104", "UseClass": "E/F.2", "Category": "TOILETRIES, COSMETICS & BEAUTY PRODUCTS", "TradeType": "G2K", "SurveyDate": "2025-10-16", "PubDate": "2025-12-01", "Area_ft2": 2600, "Area_m2": 240, "Centroid_X": "-0.149417", "Centroid_Y": "51.513793"}}, {"type": "Feature", "geometry": {"type": "Polygon", "coordinates": [[[-0.133148, 51.510785], [-0.133153, 51.510782], [-0.133157, 51.510779], [-0.133173, 51.510775], [-0.13327, 51.510905], [-0.133304, 51.510952], [-0.133218, 51.510978], [-0.133237, 51.511003], [-0.133212, 51.511011], [-0.133239, 51.511048], [-0.133158, 51.511072], [-0.133006, 51.510864], [-0.133055, 51.51085], [-0.13307, 51.510812], [-0.133085, 51.51081], [-0.133096, 51.510808], [-0.133107, 51.510805], [-0.133117, 51.510802], [-0.133126, 51.510798], [-0.133133, 51.510795], [-0.133142, 51.51079], [-0.133148, 51.510785]]]}, "properties": {"Class": "Retail", "Subclass": "Retaillg", "GoadNumber": "338772", "CentreCode": "9033MM", "Fascia": "", "Activity": "UNDER#ALTERATION", "MiscText": "", "FasciaMas": "", "PrimaryAc": "UNDER ALTERATION", "SecondAc": "", "HoldingCo": "NON MULTIPLE", "TradingFls": 1, "StreetNum": "49", "StreetName": "TROCADERO CENTRE", "Postcode": "W1D 7DH", "PrecName": "TROCADERO CENTRE", "PrecID": "4105", "UseClass": "E/F.2", "Category": "VACANT RETAIL/SERVICE", "TradeType": "G4B", "SurveyDate": "2025-10-16", "PubDate": "2025-12-01", "Area_ft2": 3700, "Area_m2": 350, "Centroid_X": "-0.133156", "Centroid_Y": "51.510918"}}, {"type": "Feature", "geometry": {"type": "Polygon", "coordinates": [[[-0.122335, 51.511838], [-0.122324, 51.511843], [-0.122295, 51.511856], [-0.122271, 51.511867], [-0.122265, 51.511869], [-0.122258, 51.511873], [-0.122246, 51.511878], [-0.122219, 51.51189], [-0.122208, 51.511895], [-0.122188, 51.511904], [-0.12218, 51.511907], [-0.12215, 51.511922], [-0.122146, 51.511924], [-0.122145, 51.511925], [-0.122141, 51.511922], [-0.122091, 51.511882], [-0.12247, 51.511711], [-0.122857, 51.511537], [-0.122885, 51.511563], [-0.122904, 51.51158], [-0.122888, 51.511588], [-0.122883, 51.51159], [-0.122878, 51.511592], [-0.122876, 51.511593], [-0.122836, 51.511611], [-0.122835, 51.511611], [-0.122772, 51.51164], [-0.122764, 51.511643], [-0.122651, 51.511693], [-0.122587, 51.511723], [-0.122522, 51.511753], [-0.122448, 51.511787], [-0.122407, 51.511806], [-0.122369, 51.511823], [-0.122346, 51.511833], [-0.122335, 51.511838]]]}, "properties": {"Class": "Retail", "Subclass": "Retaillg", "GoadNumber": "305083", "CentreCode": "9033MM", "Fascia": "", "Activity": "STORE", "MiscText": "", "FasciaMas": "", "PrimaryAc": "STORE", "SecondAc": "", "HoldingCo": "NON MULTIPLE", "TradingFls": 1, "StreetNum": "", "StreetName": "THE MARKET, THE PIAZZA", "Postcode": "WC2E 8RB", "PrecName": "", "PrecID": "", "UseClass": "B8", "Category": "ENTRANCE & STORES", "TradeType": "", "SurveyDate": "2025-10-16", "PubDate": "2025-12-01", "Area_ft2": 4100, "Area_m2": 380, "Centroid_X": "-0.122496", "Centroid_Y": "51.511732"}}, {"type": "Feature", "geometry": {"type": "Polygon", "coordinates": [[[-0.123099, 51.511985], [-0.122999, 51.511896], [-0.123067, 51.511865], [-0.123044, 51.511846], [-0.122977, 51.511877], [-0.122966, 51.511868], [-0.122923, 51.511832], [-0.122891, 51.511804], [-0.122999, 51.511755], [-0.123061, 51.511728], [-0.123072, 51.511723], [-0.123223, 51.511848], [-0.123204, 51.511856], [-0.123223, 51.511874], [-0.123301, 51.511838], [-0.12337, 51.511896], [-0.123261, 51.511946], [-0.123235, 51.511923], [-0.123099, 51.511985]]]}, "properties": {"Class": "Retail", "Subclass": "Retaillg", "GoadNumber": "305078", "CentreCode": "9033MM", "Fascia": "PUNCH & JUDY", "Activity": "PUBLIC HOUSE", "MiscText": "GREENE KING", "FasciaMas": "PUNCH & JUDY", "PrimaryAc": "PUBLIC HOUSE", "SecondAc": "", "HoldingCo": "NON MULTIPLE", "TradingFls": 2, "StreetNum": "40", "StreetName": "THE MARKET, THE PIAZZA", "Postcode": "WC2E 8RF", "PrecName": "", "PrecID": "", "UseClass": "ESG", "Category": "PUBLIC HOUSES", "TradeType": "", "SurveyDate": "2025-10-16", "PubDate": "2025-12-01", "Area_ft2": 4600, "Area_m2": 420, "Centroid_X": "-0.123115", "Centroid_Y": "51.511857"}}, {"type": "Feature", "geometry": {"type": "Polygon", "coordinates": [[[-0.122967, 51.512046], [-0.122864, 51.511958], [-0.122931, 51.511927], [-0.122999, 51.511896], [-0.123099, 51.511985], [-0.123035, 51.512014], [-0.122967, 51.512046]]]}, "properties": {"Class": "Retail", "Subclass": "Retaillg", "GoadNumber": "513646", "CentreCode": "9033MM", "Fascia": "WHITTARD OF#CHELSEA", "Activity": "T&COFF#MERCH", "MiscText": "", "FasciaMas": "WHITTARD OF CHELSEA", "PrimaryAc": "TEA & COFFEE MERCHANT", "SecondAc": "", "HoldingCo": "EPIC", "TradingFls": 2, "StreetNum": "9", "StreetName": "THE MARKET, THE PIAZZA", "Postcode": "WC2E 8RB", "PrecName": "", "PrecID": "", "UseClass": "E/F.2", "Category": "GROCERS & DELICATESSENS", "TradeType": "G1D", "SurveyDate": "2025-10-16", "PubDate": "2025-12-01", "Area_ft2": 1500, "Area_m2": 140, "Centroid_X": "-0.122982", "Centroid_Y": "51.511971"}}, {"type": "Feature", "geometry": {"type": "Polygon", "coordinates": [[[-0.133143, 51.510668], [-0.133142, 51.510667], [-0.133141, 51.510667], [-0.13314, 51.510666], [-0.13314, 51.510665], [-0.13314, 51.510664], [-0.133141, 51.510664], [-0.133141, 51.510663], [-0.133142, 51.510662], [-0.133142, 51.510662], [-0.133142, 51.51066], [-0.133141, 51.510658], [-0.133136, 51.510652], [-0.133095, 51.510598], [-0.133132, 51.510588], [-0.133172, 51.510576], [-0.133226, 51.510647], [-0.133221, 51.510649], [-0.133215, 51.510652], [-0.133206, 51.510654], [-0.133198, 51.510657], [-0.133184, 51.510661], [-0.133175, 51.510664], [-0.13317, 51.510665], [-0.133161, 51.510668], [-0.133155, 51.510669], [-0.133152, 51.510669], [-0.13315, 51.510669], [-0.133148, 51.510669], [-0.133147, 51.510669], [-0.133146, 51.510669], [-0.133145, 51.510669], [-0.133143, 51.510668]]]}, "properties": {"Class": "Retail", "Subclass": "Retaillg", "GoadNumber": "499650", "CentreCode": "9033MM", "Fascia": "", "Activity": "UND/#ALTN", "MiscText": "", "FasciaMas": "", "PrimaryAc": "UNDER ALTERATION", "SecondAc": "", "HoldingCo": "NON MULTIPLE", "TradingFls": 1, "StreetNum": "1", "StreetName": "TROCADERO CENTRE", "Postcode": "W1D 7DH", "PrecName": "TROCADERO CENTRE", "PrecID": "4105", "UseClass": "E/F.2", "Category": "VACANT RETAIL/SERVICE", "TradeType": "G4B", "SurveyDate": "2025-10-16", "PubDate": "2025-12-01", "Area_ft2": 600, "Area_m2": 50, "Centroid_X": "-0.133161", "Centroid_Y": "51.510624"}}, {"type": "Feature", "geometry": {"type": "Polygon", "coordinates": [[[-0.149255, 51.514098], [-0.149274, 51.514071], [-0.149281, 51.514061], [-0.14955, 51.51401], [-0.149668, 51.513987], [-0.149687, 51.513983], [-0.149696, 51.513981], [-0.149721, 51.514032], [-0.149733, 51.514055], [-0.149587, 51.514081], [-0.149645, 51.514217], [-0.149553, 51.514229], [-0.149537, 51.51423], [-0.149516, 51.514242], [-0.149476, 51.514247], [-0.14945, 51.514241], [-0.149297, 51.514259], [-0.14929, 51.514259], [-0.149283, 51.514258], [-0.149279, 51.514257], [-0.149278, 51.514256], [-0.149274, 51.514255], [-0.149269, 51.514253], [-0.149267, 51.514251], [-0.149264, 51.514249], [-0.149262, 51.514248], [-0.14926, 51.514246], [-0.149257, 51.514244], [-0.149255, 51.514242], [-0.149253, 51.514237], [-0.149233, 51.514197], [-0.149214, 51.514158], [-0.149255, 51.514098]]]}, "properties": {"Class": "Retail", "Subclass": "Retaillg", "GoadNumber": "308373", "CentreCode": "9033MM", "Fascia": "", "Activity": "UNDERGROUND#STATION", "MiscText": "BOND STREET", "FasciaMas": "LONDON UNDERGROUND", "PrimaryAc": "UNDERGROUND STATION", "SecondAc": "", "HoldingCo": "TRANSPORT FOR LONDON", "TradingFls": 1, "StreetNum": "", "StreetName": "WEST ONE SHOPPING CENTRE, OXFORD STREET", "Postcode": "W1C 2JS", "PrecName": "WEST ONE SHOPPING CENTRE", "PrecID": "4104", "UseClass": "UC", "Category": "TRANSPORT FACILITIES", "TradeType": "", "SurveyDate": "2025-10-16", "PubDate": "2025-12-01", "Area_ft2": 7200, "Area_m2": 670, "Centroid_X": "-0.149455", "Centroid_Y": "51.51413"}}, {"type": "Feature", "geometry": {"type": "Polygon", "coordinates": [[[-0.132982, 51.511219], [-0.132966, 51.511197], [-0.132996, 51.511188], [-0.133159, 51.511122], [-0.133141, 51.511098], [-0.133243, 51.511068], [-0.133285, 51.511124], [-0.133341, 51.51114], [-0.133306, 51.511171], [-0.133344, 51.51119], [-0.133312, 51.511215], [-0.133212, 51.511209], [-0.133197, 51.511221], [-0.133263, 51.511251], [-0.133248, 51.511261], [-0.133232, 51.511272], [-0.133209, 51.511288], [-0.133187, 51.511302], [-0.133165, 51.511315], [-0.133047, 51.511307], [-0.133028, 51.511282], [-0.132993, 51.511235], [-0.132982, 51.511219]]]}, "properties": {"Class": "Retail", "Subclass": "Retaillg", "GoadNumber": "321424", "CentreCode": "9033MM", "Fascia": "", "Activity": "UNDER ALTERATION", "MiscText": "", "FasciaMas": "", "PrimaryAc": "UNDER ALTERATION", "SecondAc": "", "HoldingCo": "NON MULTIPLE", "TradingFls": 1, "StreetNum": "", "StreetName": "TROCADERO CENTRE", "Postcode": "W1D 7DH", "PrecName": "TROCADERO CENTRE", "PrecID": "4105", "UseClass": "E/F.2", "Category": "VACANT RETAIL/SERVICE", "TradeType": "G4B", "SurveyDate": "2025-10-16", "PubDate": "2025-12-01", "Area_ft2": 4100, "Area_m2": 390, "Centroid_X": "-0.133158", "Centroid_Y": "51.511201"}}, {"type": "Feature", "geometry": {"type": "Polygon", "coordinates": [[[-0.149147, 51.514025], [-0.149134, 51.514002], [-0.149146, 51.513993], [-0.149174, 51.513986], [-0.149212, 51.514], [-0.149166, 51.514062], [-0.149161, 51.514051], [-0.149147, 51.514025]]]}, "properties": {"Class": "Retail", "Subclass": "Retaillg", "GoadNumber": "308371", "CentreCode": "9033MM", "Fascia": "NOTES", "Activity": "CAFE", "MiscText": "", "FasciaMas": "NOTES", "PrimaryAc": "CAFE", "SecondAc": "", "HoldingCo": "NOTES : MUSIC & COFFEE LTD", "TradingFls": 1, "StreetNum": "14", "StreetName": "WEST ONE SHOPPING CENTRE, OXFORD STREET", "Postcode": "W1C 2JS", "PrecName": "WEST ONE SHOPPING CENTRE", "PrecID": "4104", "UseClass": "E", "Category": "CAFES", "TradeType": "G3A", "SurveyDate": "2025-10-16", "PubDate": "2025-12-01", "Area_ft2": 300, "Area_m2": 20, "Centroid_X": "-0.149171", "Centroid_Y": "51.514015"}}, {"type": "Feature", "geometry": {"type": "Polygon", "coordinates": [[[-0.149657, 51.513916], [-0.149643, 51.513887], [-0.149677, 51.513833], [-0.149701, 51.513828], [-0.149784, 51.513808], [-0.149813, 51.513864], [-0.149835, 51.513906], [-0.149877, 51.513987], [-0.149811, 51.513999], [-0.149795, 51.513976], [-0.149714, 51.513989], [-0.149707, 51.513979], [-0.149696, 51.513981], [-0.149687, 51.513983], [-0.149669, 51.513943], [-0.149657, 51.513916]]]}, "properties": {"Class": "Retail", "Subclass": "Retaillg", "GoadNumber": "308362", "CentreCode": "9033MM", "Fascia": "MARKS & SPENCER#SIMPLY FOOD", "Activity": "CONV STO", "MiscText": "", "FasciaMas": "MARKS & SPENCER SIMPLY FOOD", "PrimaryAc": "CONVENIENCE STORE", "SecondAc": "", "HoldingCo": "MARKS & SPENCER", "TradingFls": 1, "StreetNum": "2", "StreetName": "WEST ONE SHOPPING CENTRE, OXFORD STREET", "Postcode": "W1C 2JS", "PrecName": "WEST ONE SHOPPING CENTRE", "PrecID": "4104", "UseClass": "E/F.2", "Category": "CONVENIENCE STORES", "TradeType": "G1F", "SurveyDate": "2025-10-16", "PubDate": "2025-12-01", "Area_ft2": 2300, "Area_m2": 220, "Centroid_X": "-0.149753", "Centroid_Y": "51.513909"}}, {"type": "Feature", "geometry": {"type": "Polygon", "coordinates": [[[-0.133538, 51.510444], [-0.133535, 51.510449], [-0.133533, 51.510454], [-0.133533, 51.510459], [-0.133534, 51.510463], [-0.133536, 51.510466], [-0.133538, 51.510469], [-0.133538, 51.510471], [-0.133535, 51.510474], [-0.133529, 51.510478], [-0.133521, 51.510483], [-0.13351, 51.51049], [-0.133499, 51.510494], [-0.133485, 51.510499], [-0.133471, 51.510503], [-0.133453, 51.510508], [-0.13343, 51.510514], [-0.133395, 51.510525], [-0.133369, 51.510534], [-0.133355, 51.51054], [-0.133344, 51.510545], [-0.133337, 51.510549], [-0.133332, 51.510552], [-0.133326, 51.510551], [-0.133319, 51.510551], [-0.133313, 51.510552], [-0.133307, 51.510552], [-0.133301, 51.510554], [-0.133294, 51.510557], [-0.133288, 51.510559], [-0.13325, 51.510554], [-0.133216, 51.510563], [-0.133197, 51.510538], [-0.13317, 51.510545], [-0.133073, 51.51042], [-0.133112, 51.51041], [-0.1331, 51.510394], [-0.133134, 51.510385], [-0.133102, 51.510343], [-0.133057, 51.510351], [-0.133031, 51.510318], [-0.133411, 51.510249], [-0.133553, 51.51043], [-0.133548, 51.510435], [-0.133543, 51.510439], [-0.133538, 51.510444]]]}, "properties": {"Class": "Retail", "Subclass": "Retaillg", "GoadNumber": "499652", "CentreCode": "9033MM", "Fascia": "PLATINUM LACE", "Activity": "ADULT SHOP", "MiscText": "", "FasciaMas": "PLATINUM LACE", "PrimaryAc": "ADULT SHOP", "SecondAc": "", "HoldingCo": "NON MULTIPLE", "TradingFls": 1, "StreetNum": "4", "StreetName": "TROCADERO CENTRE", "Postcode": "W1D 7DH", "PrecName": "TROCADERO CENTRE", "PrecID": "4105", "UseClass": "E/F.2", "Category": "OTHER COMPARISON GOODS", "TradeType": "G2P", "SurveyDate": "2025-10-16", "PubDate": "2025-12-01", "Area_ft2": 8700, "Area_m2": 800, "Centroid_X": "-0.133303", "Centroid_Y": "51.510407"}}, {"type": "Feature", "geometry": {"type": "Polygon", "coordinates": [[[-0.125538, 51.508732], [-0.125538, 51.50873], [-0.12554, 51.508723], [-0.125544, 51.508716], [-0.125547, 51.508713], [-0.125551, 51.508709], [-0.125559, 51.508704], [-0.125568, 51.5087], [-0.125577, 51.508697], [-0.125587, 51.508694], [-0.125596, 51.508693], [-0.125608, 51.508692], [-0.125618, 51.508693], [-0.125626, 51.508694], [-0.125636, 51.508697], [-0.125644, 51.508701], [-0.125646, 51.508703], [-0.125652, 51.508707], [-0.125656, 51.508712], [-0.125659, 51.508715], [-0.125661, 51.508719], [-0.125708, 51.508717], [-0.125708, 51.508713], [-0.125711, 51.508709], [-0.125715, 51.508703], [-0.125721, 51.508699], [-0.125726, 51.508697], [-0.125736, 51.508693], [-0.125746, 51.50869], [-0.12575, 51.50869], [-0.125761, 51.508688], [-0.125773, 51.508689], [-0.12578, 51.508689], [-0.125789, 51.508691], [-0.125799, 51.508693], [-0.125803, 51.508695], [-0.125806, 51.508696], [-0.125813, 51.5087], [-0.125818, 51.508705], [-0.125823, 51.508712], [-0.125825, 51.508718], [-0.125825, 51.508721], [-0.125825, 51.508724], [-0.125825, 51.508727], [-0.125824, 51.508732], [-0.125821, 51.508736], [-0.125818, 51.508742], [-0.125812, 51.508747], [-0.125808, 51.508749], [-0.125806, 51.50875], [-0.125801, 51.508753], [-0.125802, 51.508762], [-0.125823, 51.508763], [-0.125823, 51.508824], [-0.125807, 51.508824], [-0.125806, 51.50878], [-0.125711, 51.50878], [-0.125712, 51.508823], [-0.12574, 51.508824], [-0.125737, 51.508958], [-0.125701, 51.508957], [-0.125699, 51.508901], [-0.125638, 51.5089], [-0.125636, 51.508924], [-0.125531, 51.508921], [-0.125521, 51.508926], [-0.125445, 51.508874], [-0.125396, 51.508839], [-0.125535, 51.508768], [-0.125492, 51.50874], [-0.125504, 51.508734], [-0.125518, 51.508727], [-0.125533, 51.508737], [-0.125536, 51.508734], [-0.125538, 51.508733], [-0.125538, 51.508732]]]}, "properties": {"Class": "Retail", "Subclass": "Retaillg", "GoadNumber": "309350", "CentreCode": "9033MM", "Fascia": "", "Activity": "UNDER#ALTERATION", "MiscText": "", "FasciaMas": "", "PrimaryAc": "UNDER ALTERATION", "SecondAc": "", "HoldingCo": "NON MULTIPLE", "TradingFls": 1, "StreetNum": "7B - 8", "StreetName": "CHARING CROSS ARCADE, ADELAIDE STREET", "Postcode": "WC2N 4HZ", "PrecName": "CHARING CROSS ARCADE", "PrecID": "4106", "UseClass": "E/F.2", "Category": "VACANT RETAIL/SERVICE", "TradeType": "G4B", "SurveyDate": "2025-10-16", "PubDate": "2025-12-01", "Area_ft2": 5300, "Area_m2": 490, "Centroid_X": "-0.125625", "Centroid_Y": "51.50881"}}, {"type": "Feature", "geometry": {"type": "Polygon", "coordinates": [[[-0.135694, 51.509575], [-0.135764, 51.509553], [-0.135759, 51.509548], [-0.135784, 51.50954], [-0.135796, 51.509536], [-0.135803, 51.509541], [-0.135867, 51.50952], [-0.135863, 51.509515], [-0.135893, 51.509506], [-0.135978, 51.509626], [-0.13598, 51.509627], [-0.136014, 51.509673], [-0.136026, 51.509688], [-0.136037, 51.509704], [-0.136084, 51.509768], [-0.136051, 51.509771], [-0.136047, 51.509763], [-0.136011, 51.509768], [-0.135972, 51.509773], [-0.135938, 51.509777], [-0.135922, 51.509779], [-0.135877, 51.509786], [-0.135835, 51.509793], [-0.135834, 51.509793], [-0.135806, 51.509798], [-0.13576, 51.509806], [-0.135723, 51.509812], [-0.135711, 51.509814], [-0.135663, 51.509823], [-0.135655, 51.509825], [-0.13561, 51.509834], [-0.135574, 51.509841], [-0.135569, 51.509842], [-0.135566, 51.509842], [-0.135564, 51.509843], [-0.135561, 51.509843], [-0.135558, 51.509844], [-0.135556, 51.509845], [-0.135553, 51.509845], [-0.135551, 51.509846], [-0.135531, 51.50985], [-0.135528, 51.50985], [-0.135509, 51.509855], [-0.135479, 51.509862], [-0.13546, 51.509866], [-0.13543, 51.509874], [-0.135402, 51.509881], [-0.135367, 51.50989], [-0.135317, 51.509901], [-0.135309, 51.509902], [-0.135315, 51.509909], [-0.135284, 51.509918], [-0.135281, 51.509916], [-0.13527, 51.50992], [-0.135266, 51.509916], [-0.135234, 51.509927], [-0.135238, 51.50993], [-0.135212, 51.509938], [-0.135195, 51.50992], [-0.135201, 51.509917], [-0.13517, 51.50988], [-0.135162, 51.509883], [-0.135151, 51.509871], [-0.135162, 51.509867], [-0.135131, 51.509832], [-0.13512, 51.509836], [-0.135111, 51.509825], [-0.135117, 51.509822], [-0.135084, 51.509784], [-0.135076, 51.509786], [-0.135065, 51.509772], [-0.135092, 51.509762], [-0.135096, 51.509766], [-0.135129, 51.509755], [-0.135126, 51.509751], [-0.135137, 51.509748], [-0.135133, 51.509744], [-0.135158, 51.509735], [-0.135162, 51.509739], [-0.135183, 51.509732], [-0.135195, 51.509728], [-0.135197, 51.50973], [-0.135229, 51.509719], [-0.135224, 51.509714], [-0.135261, 51.509702], [-0.135265, 51.509707], [-0.135326, 51.509688], [-0.135492, 51.509639], [-0.135605, 51.509603], [-0.135694, 51.509575]]]}, "properties": {"Class": "Retail", "Subclass": "Retaillg", "GoadNumber": "307425", "CentreCode": "9033MM", "Fascia": "", "Activity": "UNDER ALTERATION", "MiscText": "", "FasciaMas": "", "PrimaryAc": "UNDER ALTERATION", "SecondAc": "", "HoldingCo": "NON MULTIPLE", "TradingFls": 2, "StreetNum": "1", "StreetName": "PICCADILLY CIRCUS", "Postcode": "W1J 0TR", "PrecName": "", "PrecID": "", "UseClass": "E/F.2", "Category": "VACANT RETAIL/SERVICE", "TradeType": "G4B", "SurveyDate": "2025-10-16", "PubDate": "2025-12-01", "Area_ft2": 16500, "Area_m2": 1540, "Centroid_X": "-0.135588", "Centroid_Y": "51.50973"}}, {"type": "Feature", "geometry": {"type": "Polygon", "coordinates": [[[-0.149573, 51.513692], [-0.149567, 51.513674], [-0.149706, 51.513649], [-0.149765, 51.513763], [-0.149626, 51.513788], [-0.149609, 51.513805], [-0.149558, 51.513695], [-0.149573, 51.513692]]]}, "properties": {"Class": "Retail", "Subclass": "Retaillg", "GoadNumber": "326776", "CentreCode": "9033MM", "Fascia": "MCDONALD`S", "Activity": "FAST FOOD#RESTAURANT", "MiscText": "", "FasciaMas": "MCDONALD`S", "PrimaryAc": "FAST FOOD RESTAURANT", "SecondAc": "", "HoldingCo": "MCDONALD`S CORPORATION", "TradingFls": 2, "StreetNum": "6", "StreetName": "WEST ONE SHOPPING CENTRE, OXFORD STREET", "Postcode": "W1C 2JS", "PrecName": "WEST ONE SHOPPING CENTRE", "PrecID": "4104", "UseClass": "ESG", "Category": "FAST FOOD & TAKE AWAY", "TradeType": "G3A", "SurveyDate": "2025-10-16", "PubDate": "2025-12-01", "Area_ft2": 1600, "Area_m2": 150, "Centroid_X": "-0.149657", "Centroid_Y": "51.513722"}}, {"type": "Feature", "geometry": {"type": "Polygon", "coordinates": [[[-0.149231, 51.51409], [-0.14925, 51.514064], [-0.149274, 51.514071], [-0.149255, 51.514098], [-0.149231, 51.51409]]]}, "properties": {"Class": "Retail", "Subclass": "Retaillg", "GoadNumber": "696161", "CentreCode": "9033MM", "Fascia": "", "Activity": "WATCH&CLOCK#REP", "MiscText": "", "FasciaMas": "WATCH SURGERY", "PrimaryAc": "WATCH & CLOCK REPAIRS", "SecondAc": "", "HoldingCo": "NON MULTIPLE", "TradingFls": 1, "StreetNum": "", "StreetName": "WEST ONE SHOPPING CENTRE, OXFORD STREET", "Postcode": "W1C 2JS", "PrecName": "WEST ONE SHOPPING CENTRE", "PrecID": "4104", "UseClass": "E/F.2", "Category": "REPAIRS, ALTERATIONS & RESTORATION", "TradeType": "G2O", "SurveyDate": "2025-10-16", "PubDate": "2025-12-01", "Area_ft2": 100, "Area_m2": 10, "Centroid_X": "-0.149253", "Centroid_Y": "51.514081"}}, {"type": "Feature", "geometry": {"type": "Polygon", "coordinates": [[[-0.133096, 51.510642], [-0.133083, 51.51064], [-0.133069, 51.510639], [-0.133053, 51.510637], [-0.133038, 51.510637], [-0.133024, 51.510638], [-0.133011, 51.510639], [-0.133, 51.510642], [-0.132985, 51.510645], [-0.132975, 51.510649], [-0.132961, 51.510653], [-0.13286, 51.510685], [-0.132829, 51.510694], [-0.132772, 51.510618], [-0.132713, 51.510634], [-0.132725, 51.51065], [-0.132693, 51.510659], [-0.132711, 51.51068], [-0.132591, 51.510715], [-0.132556, 51.51067], [-0.132506, 51.510605], [-0.132477, 51.510567], [-0.132447, 51.510528], [-0.132429, 51.510505], [-0.132405, 51.510473], [-0.132368, 51.510424], [-0.132366, 51.510417], [-0.132367, 51.510411], [-0.132369, 51.510405], [-0.132374, 51.510397], [-0.132383, 51.510391], [-0.132388, 51.510387], [-0.132398, 51.510382], [-0.132409, 51.510378], [-0.132417, 51.510375], [-0.132553, 51.510494], [-0.132673, 51.510459], [-0.132658, 51.510439], [-0.132734, 51.510418], [-0.132772, 51.510407], [-0.132732, 51.510354], [-0.132827, 51.510341], [-0.132838, 51.510356], [-0.132928, 51.510329], [-0.13301, 51.510437], [-0.133039, 51.510429], [-0.133136, 51.510557], [-0.133113, 51.510563], [-0.133132, 51.510588], [-0.133095, 51.510598], [-0.133141, 51.510658], [-0.133131, 51.510654], [-0.13312, 51.51065], [-0.133107, 51.510645], [-0.133096, 51.510642]]]}, "properties": {"Class": "Retail", "Subclass": "Retaillg", "GoadNumber": "499649", "CentreCode": "9033MM", "Fascia": "", "Activity": "VACANT#PUBLIC HOUSE", "MiscText": "", "FasciaMas": "", "PrimaryAc": "VACANT PUBLIC HOUSE", "SecondAc": "", "HoldingCo": "NON MULTIPLE", "TradingFls": 1, "StreetNum": "", "StreetName": "TROCADERO CENTRE", "Postcode": "W1D 7DH", "PrecName": "TROCADERO CENTRE", "PrecID": "4105", "UseClass": "ESG", "Category": "VACANT RETAIL/SERVICE", "TradeType": "", "SurveyDate": "2025-10-16", "PubDate": "2025-12-01", "Area_ft2": 13700, "Area_m2": 1280, "Centroid_X": "-0.132781", "Centroid_Y": "51.510528"}}, {"type": "Feature", "geometry": {"type": "Polygon", "coordinates": [[[-0.133276, 51.510609], [-0.133264, 51.510622], [-0.133249, 51.510635], [-0.133241, 51.51064], [-0.133226, 51.510647], [-0.133172, 51.510576], [-0.133216, 51.510563], [-0.13325, 51.510554], [-0.133288, 51.510559], [-0.133286, 51.510561], [-0.133284, 51.510563], [-0.133282, 51.510565], [-0.13328, 51.510567], [-0.133279, 51.51057], [-0.133279, 51.510572], [-0.133279, 51.510575], [-0.13328, 51.510578], [-0.133282, 51.510582], [-0.133284, 51.510585], [-0.133288, 51.510592], [-0.133286, 51.510597], [-0.133276, 51.510609]]]}, "properties": {"Class": "Retail", "Subclass": "Retaillg", "GoadNumber": "373540", "CentreCode": "9033MM", "Fascia": "", "Activity": "UND/#ALTN", "MiscText": "", "FasciaMas": "", "PrimaryAc": "UNDER ALTERATION", "SecondAc": "", "HoldingCo": "NON MULTIPLE", "TradingFls": 1, "StreetNum": "", "StreetName": "TROCADERO CENTRE", "Postcode": "W1D 7DH", "PrecName": "TROCADERO CENTRE", "PrecID": "4105", "UseClass": "E/F.2", "Category": "VACANT RETAIL/SERVICE", "TradeType": "G4B", "SurveyDate": "2025-10-16", "PubDate": "2025-12-01", "Area_ft2": 500, "Area_m2": 50, "Centroid_X": "-0.133236", "Centroid_Y": "51.510594"}}, {"type": "Feature", "geometry": {"type": "Polygon", "coordinates": [[[-0.133131, 51.510654], [-0.133141, 51.510658], [-0.133142, 51.51066], [-0.133142, 51.510662], [-0.133142, 51.510662], [-0.133141, 51.510663], [-0.133141, 51.510664], [-0.13314, 51.510664], [-0.13314, 51.510665], [-0.13314, 51.510666], [-0.133141, 51.510667], [-0.133142, 51.510667], [-0.133143, 51.510668], [-0.133145, 51.510669], [-0.133146, 51.510669], [-0.133147, 51.510669], [-0.133148, 51.510669], [-0.13315, 51.510669], [-0.133152, 51.510669], [-0.133155, 51.510669], [-0.133161, 51.510668], [-0.13317, 51.510665], [-0.133175, 51.510664], [-0.133184, 51.510661], [-0.133248, 51.510748], [-0.13324, 51.510752], [-0.133225, 51.510759], [-0.13321, 51.510764], [-0.133186, 51.510771], [-0.133173, 51.510775], [-0.133162, 51.510778], [-0.133153, 51.510782], [-0.133148, 51.510785], [-0.133142, 51.51079], [-0.133133, 51.510795], [-0.133126, 51.510798], [-0.133117, 51.510802], [-0.133107, 51.510805], [-0.133096, 51.510808], [-0.133085, 51.51081], [-0.13307, 51.510812], [-0.133055, 51.51085], [-0.133053, 51.51085], [-0.133006, 51.510864], [-0.132926, 51.510767], [-0.132903, 51.51074], [-0.132878, 51.510709], [-0.132934, 51.510692], [-0.13298, 51.510679], [-0.13297, 51.510665], [-0.132961, 51.510653], [-0.132975, 51.510649], [-0.132985, 51.510645], [-0.133, 51.510642], [-0.133011, 51.510639], [-0.133024, 51.510638], [-0.133038, 51.510637], [-0.133053, 51.510637], [-0.133069, 51.510639], [-0.133083, 51.51064], [-0.133096, 51.510642], [-0.133107, 51.510645], [-0.13312, 51.51065], [-0.13313, 51.510654], [-0.133131, 51.510654]]]}, "properties": {"Class": "Retail", "Subclass": "Retaillg", "GoadNumber": "393952", "CentreCode": "9033MM", "Fascia": "", "Activity": "UNDER#ALTERATION", "MiscText": "", "FasciaMas": "", "PrimaryAc": "UNDER ALTERATION", "SecondAc": "", "HoldingCo": "NON MULTIPLE", "TradingFls": 1, "StreetNum": "", "StreetName": "TROCADERO CENTRE", "Postcode": "W1D 7DH", "PrecName": "TROCADERO CENTRE", "PrecID": "4105", "UseClass": "E/F.2", "Category": "VACANT RETAIL/SERVICE", "TradeType": "G4B", "SurveyDate": "2025-10-16", "PubDate": "2025-12-01", "Area_ft2": 3900, "Area_m2": 360, "Centroid_X": "-0.133058", "Centroid_Y": "51.510735"}}, {"type": "Feature", "geometry": {"type": "Polygon", "coordinates": [[[-0.122498, 51.512362], [-0.122497, 51.512361], [-0.12244, 51.512312], [-0.122536, 51.512267], [-0.122575, 51.512249], [-0.122612, 51.512232], [-0.122669, 51.512282], [-0.12268, 51.512291], [-0.122726, 51.512332], [-0.122742, 51.512346], [-0.122723, 51.512354], [-0.122685, 51.512372], [-0.122574, 51.512423], [-0.122556, 51.512408], [-0.122528, 51.51242], [-0.122516, 51.512426], [-0.122469, 51.512387], [-0.122459, 51.512379], [-0.122487, 51.512367], [-0.122498, 51.512362]]]}, "properties": {"Class": "Retail", "Subclass": "Retaillg", "GoadNumber": "396310", "CentreCode": "9033MM", "Fascia": "CHANEL#FRAGRANCE#& BEAUTY", "Activity": "HEALTH &#BEAUTY", "MiscText": "", "FasciaMas": "CHANEL FRAGRANCE & BEAUTY", "PrimaryAc": "HEALTH & BEAUTY", "SecondAc": "", "HoldingCo": "NON MULTIPLE", "TradingFls": 1, "StreetNum": "6", "StreetName": "THE MARKET, THE PIAZZA", "Postcode": "WC2E 8RA", "PrecName": "", "PrecID": "", "UseClass": "E/F.2", "Category": "TOILETRIES, COSMETICS & BEAUTY PRODUCTS", "TradeType": "G2K", "SurveyDate": "2025-10-16", "PubDate": "2025-12-01", "Area_ft2": 2700, "Area_m2": 250, "Centroid_X": "-0.122584", "Centroid_Y": "51.512334"}}, {"type": "Feature", "geometry": {"type": "Polygon", "coordinates": [[[-0.12554, 51.50907], [-0.12554, 51.509098], [-0.125523, 51.5091], [-0.125477, 51.5091], [-0.125475, 51.509059], [-0.125542, 51.509025], [-0.125577, 51.509008], [-0.12558, 51.50907], [-0.12554, 51.50907]]]}, "properties": {"Class": "Retail", "Subclass": "Retaillg", "GoadNumber": "309346", "CentreCode": "9033MM", "Fascia": "", "Activity": "UND/ALTN", "MiscText": "", "FasciaMas": "", "PrimaryAc": "UNDER ALTERATION", "SecondAc": "", "HoldingCo": "NON MULTIPLE", "TradingFls": 1, "StreetNum": "18", "StreetName": "CHARING CROSS ARCADE, ADELAIDE STREET", "Postcode": "WC2N 4HZ", "PrecName": "CHARING CROSS ARCADE", "PrecID": "4106", "UseClass": "E/F.2", "Category": "VACANT RETAIL/SERVICE", "TradeType": "G4B", "SurveyDate": "2025-10-16", "PubDate": "2025-12-01", "Area_ft2": 500, "Area_m2": 40, "Centroid_X": "-0.125529", "Centroid_Y": "51.509061"}}, {"type": "Feature", "geometry": {"type": "Polygon", "coordinates": [[[-0.126161, 51.51391], [-0.126092, 51.513918], [-0.126083, 51.51389], [-0.126153, 51.513882], [-0.126161, 51.51391]]]}, "properties": {"Class": "Retail", "Subclass": "Retaillg", "GoadNumber": "2002267", "CentreCode": "9033MM", "Fascia": "", "Activity": "PIZZA#T/A", "MiscText": "", "FasciaMas": "BAD BOY PIZZA", "PrimaryAc": "PIZZA TAKE AWAY", "SecondAc": "", "HoldingCo": "NON MULTIPLE", "TradingFls": 1, "StreetNum": "13", "StreetName": "SEVEN DIALS MARKET, SEVEN DIALS MARKET", "Postcode": "WC2H 9LD", "PrecName": "SEVEN DIALS MARKET", "PrecID": "4102", "UseClass": "ESG", "Category": "FAST FOOD & TAKE AWAY", "TradeType": "G3A", "SurveyDate": "2025-10-16", "PubDate": "2025-12-01", "Area_ft2": 200, "Area_m2": 20, "Centroid_X": "-0.126122", "Centroid_Y": "51.5139"}}, {"type": "Feature", "geometry": {"type": "Polygon", "coordinates": [[[-0.122841, 51.512126], [-0.12272, 51.512023], [-0.122864, 51.511958], [-0.122967, 51.512046], [-0.122927, 51.512064], [-0.122944, 51.512078], [-0.122841, 51.512126]]]}, "properties": {"Class": "Retail", "Subclass": "Retaillg", "GoadNumber": "334849", "CentreCode": "9033MM", "Fascia": "LADERACH", "Activity": "CONF & BIS", "MiscText": "", "FasciaMas": "LADERACH", "PrimaryAc": "CONFECTIONERY & BISCUITS", "SecondAc": "", "HoldingCo": "NON MULTIPLE", "TradingFls": 1, "StreetNum": "10", "StreetName": "THE MARKET, THE PIAZZA", "Postcode": "WC2E 8RB", "PrecName": "", "PrecID": "", "UseClass": "E/F.2", "Category": "BAKERS & CONFECTIONERS", "TradeType": "G1A", "SurveyDate": "2025-10-16", "PubDate": "2025-12-01", "Area_ft2": 1800, "Area_m2": 170, "Centroid_X": "-0.122848", "Centroid_Y": "51.512041"}}, {"type": "Feature", "geometry": {"type": "Polygon", "coordinates": [[[-0.149488, 51.513968], [-0.149498, 51.513984], [-0.149422, 51.514001], [-0.149413, 51.513984], [-0.149488, 51.513968]]]}, "properties": {"Class": "Retail", "Subclass": "Retaillg", "GoadNumber": "2025269", "CentreCode": "9033MM", "Fascia": "", "Activity": "CONF & BIS", "MiscText": "", "FasciaMas": "JOE BLAKE`S", "PrimaryAc": "CONFECTIONERY & BISCUITS", "SecondAc": "", "HoldingCo": "NON MULTIPLE", "TradingFls": 1, "StreetNum": "", "StreetName": "WEST ONE SHOPPING CENTRE, OXFORD STREET", "Postcode": "W1C 2JS", "PrecName": "", "PrecID": "", "UseClass": "E/F.2", "Category": "BAKERS & CONFECTIONERS", "TradeType": "G1A", "SurveyDate": "2025-10-16", "PubDate": "2025-12-01", "Area_ft2": 100, "Area_m2": 10, "Centroid_X": "-0.149455", "Centroid_Y": "51.513984"}}, {"type": "Feature", "geometry": {"type": "Polygon", "coordinates": [[[-0.125478, 51.509196], [-0.125578, 51.509196], [-0.125578, 51.509216], [-0.12553, 51.509216], [-0.12553, 51.509224], [-0.125479, 51.509223], [-0.125478, 51.509196]]]}, "properties": {"Class": "Retail", "Subclass": "Non Retail Buildingslg", "GoadNumber": "", "CentreCode": "9033MM", "Fascia": "", "Activity": "ENT", "MiscText": "", "FasciaMas": "", "PrimaryAc": "ENTRANCE", "SecondAc": "", "HoldingCo": "NON MULTIPLE", "TradingFls": 1, "StreetNum": "", "StreetName": "CHARING CROSS ARCADE, ADELAIDE STREET", "Postcode": "WC2N 4HZ", "PrecName": "CHARING CROSS ARCADE", "PrecID": "4106", "UseClass": "UC", "Category": "ENTRANCE & STORES", "TradeType": "", "SurveyDate": "2025-10-16", "PubDate": "2025-12-01", "Area_ft2": 200, "Area_m2": 20, "Centroid_X": "-0.125524", "Centroid_Y": "51.509208"}}, {"type": "Feature", "geometry": {"type": "Polygon", "coordinates": [[[-0.125639, 51.508956], [-0.125636, 51.508924], [-0.125638, 51.5089], [-0.125699, 51.508901], [-0.125701, 51.508957], [-0.125639, 51.508956]]]}, "properties": {"Class": "Retail", "Subclass": "Non Retail Buildingslg", "GoadNumber": "", "CentreCode": "9033MM", "Fascia": "", "Activity": "ENT", "MiscText": "", "FasciaMas": "", "PrimaryAc": "ENTRANCE", "SecondAc": "", "HoldingCo": "NON MULTIPLE", "TradingFls": 1, "StreetNum": "", "StreetName": "CHARING CROSS ARCADE, ADELAIDE STREET", "Postcode": "WC2N 4HZ", "PrecName": "CHARING CROSS ARCADE", "PrecID": "4106", "UseClass": "UC", "Category": "ENTRANCE & STORES", "TradeType": "", "SurveyDate": "2025-10-16", "PubDate": "2025-12-01", "Area_ft2": 300, "Area_m2": 30, "Centroid_X": "-0.125669", "Centroid_Y": "51.508929"}}]}