{"type": "FeatureCollection", "features": [{"type": "Feature", "geometry": {"type": "Polygon", "coordinates": [[[-0.124503, 51.508174], [-0.12454, 51.508193], [-0.12452, 51.508207], [-0.124509, 51.508201], [-0.124484, 51.508187], [-0.124503, 51.508174]]]}, "properties": {"Class": "Retail", "Subclass": "Retailf1", "GoadNumber": "447967", "CentreCode": "9033MM", "Fascia": "", "Activity": "T/A", "MiscText": "", "FasciaMas": "THE PASTY SHOP", "PrimaryAc": "TAKE AWAY", "SecondAc": "", "HoldingCo": "THE PASTY SHOP", "TradingFls": 1, "StreetNum": "", "StreetName": "CHARING CROSS STATION", "Postcode": "WC2N 5HS", "PrecName": "", "PrecID": "", "UseClass": "ESG", "Category": "FAST FOOD & TAKE AWAY", "TradeType": "G3A", "SurveyDate": "2025-10-16", "PubDate": "2025-12-01", "Area_ft2": 100, "Area_m2": 10, "Centroid_X": "-0.124512", "Centroid_Y": "51.50819"}}, {"type": "Feature", "geometry": {"type": "Polygon", "coordinates": [[[-0.122882, 51.512016], [-0.122839, 51.511978], [-0.12301, 51.511901], [-0.123055, 51.511939], [-0.122996, 51.511966], [-0.122882, 51.512016]]]}, "properties": {"Class": "Retail", "Subclass": "Retailf1", "GoadNumber": "461997", "CentreCode": "9033MM", "Fascia": "", "Activity": "OFFICE", "MiscText": "", "FasciaMas": "", "PrimaryAc": "OFFICE", "SecondAc": "", "HoldingCo": "NON MULTIPLE", "TradingFls": 1, "StreetNum": "", "StreetName": "THE MARKET, THE PIAZZA", "Postcode": "WC2E 8RB", "PrecName": "", "PrecID": "", "UseClass": "E", "Category": "OFFICES", "TradeType": "", "SurveyDate": "2025-10-16", "PubDate": "2025-12-01", "Area_ft2": 800, "Area_m2": 80, "Centroid_X": "-0.122947", "Centroid_Y": "51.511959"}}, {"type": "Feature", "geometry": {"type": "Polygon", "coordinates": [[[-0.125424, 51.508068], [-0.1254, 51.508086], [-0.125303, 51.508034], [-0.125326, 51.508018], [-0.125424, 51.508068]]]}, "properties": {"Class": "Retail", "Subclass": "Retailf1", "GoadNumber": "447975", "CentreCode": "9033MM", "Fascia": "COSTA", "Activity": "COFF SH", "MiscText": "", "FasciaMas": "COSTA", "PrimaryAc": "COFFEE SHOP", "SecondAc": "", "HoldingCo": "THE COCA-COLA COMPANY", "TradingFls": 1, "StreetNum": "", "StreetName": "CHARING CROSS STATION", "Postcode": "WC2N 5HS", "PrecName": "", "PrecID": "", "UseClass": "E", "Category": "CAFES", "TradeType": "G3A", "SurveyDate": "2025-10-16", "PubDate": "2025-12-01", "Area_ft2": 200, "Area_m2": 20, "Centroid_X": "-0.125364", "Centroid_Y": "51.508052"}}, {"type": "Feature", "geometry": {"type": "Polygon", "coordinates": [[[-0.123489, 51.51199], [-0.123513, 51.51201], [-0.123407, 51.512057], [-0.123396, 51.512047], [-0.123363, 51.512018], [-0.123317, 51.512038], [-0.123289, 51.512014], [-0.123307, 51.512006], [-0.123379, 51.511974], [-0.123384, 51.511972], [-0.123403, 51.511963], [-0.123409, 51.511961], [-0.123476, 51.511931], [-0.12348, 51.511929], [-0.123516, 51.511961], [-0.123526, 51.511969], [-0.12353, 51.511974], [-0.123489, 51.51199]]]}, "properties": {"Class": "Retail", "Subclass": "Retailf1", "GoadNumber": "305960", "CentreCode": "9033MM", "Fascia": "LADUREE", "Activity": "CONF & BIS", "MiscText": "", "FasciaMas": "LADUREE", "PrimaryAc": "CONFECTIONERY & BISCUITS", "SecondAc": "", "HoldingCo": "NON MULTIPLE", "TradingFls": 2, "StreetNum": "1", "StreetName": "THE MARKET, THE PIAZZA", "Postcode": "WC2E 8RA", "PrecName": "", "PrecID": "", "UseClass": "E/F.2", "Category": "BAKERS & CONFECTIONERS", "TradeType": "G1A", "SurveyDate": "2025-10-16", "PubDate": "2025-12-01", "Area_ft2": 1200, "Area_m2": 110, "Centroid_X": "-0.123424", "Centroid_Y": "51.511996"}}, {"type": "Feature", "geometry": {"type": "Polygon", "coordinates": [[[-0.122678, 51.511995], [-0.122556, 51.512049], [-0.122435, 51.512104], [-0.122397, 51.512071], [-0.122514, 51.512018], [-0.122637, 51.51196], [-0.122678, 51.511995]]]}, "properties": {"Class": "Retail", "Subclass": "Retailf1", "GoadNumber": "305970", "CentreCode": "9033MM", "Fascia": "", "Activity": "STORE", "MiscText": "", "FasciaMas": "", "PrimaryAc": "STORE", "SecondAc": "", "HoldingCo": "NON MULTIPLE", "TradingFls": 1, "StreetNum": "45", "StreetName": "THE MARKET, THE PIAZZA", "Postcode": "WC2E 8RF", "PrecName": "", "PrecID": "", "UseClass": "B8", "Category": "ENTRANCE & STORES", "TradeType": "", "SurveyDate": "2025-10-16", "PubDate": "2025-12-01", "Area_ft2": 1000, "Area_m2": 100, "Centroid_X": "-0.122538", "Centroid_Y": "51.512032"}}, {"type": "Feature", "geometry": {"type": "Polygon", "coordinates": [[[-0.122882, 51.512016], [-0.122811, 51.512049], [-0.122768, 51.51201], [-0.122839, 51.511978], [-0.122882, 51.512016]]]}, "properties": {"Class": "Retail", "Subclass": "Retailf1", "GoadNumber": "305966", "CentreCode": "9033MM", "Fascia": "", "Activity": "OFFICE", "MiscText": "", "FasciaMas": "", "PrimaryAc": "OFFICE", "SecondAc": "", "HoldingCo": "NON MULTIPLE", "TradingFls": 2, "StreetNum": "", "StreetName": "THE MARKET, THE PIAZZA", "Postcode": "WC2E 8RB", "PrecName": "", "PrecID": "", "UseClass": "E", "Category": "OFFICES", "TradeType": "", "SurveyDate": "2025-10-16", "PubDate": "2025-12-01", "Area_ft2": 300, "Area_m2": 30, "Centroid_X": "-0.122825", "Centroid_Y": "51.512013"}}, {"type": "Feature", "geometry": {"type": "Polygon", "coordinates": [[[-0.124333, 51.508292], [-0.124321, 51.508299], [-0.124275, 51.508277], [-0.124278, 51.508272], [-0.124142, 51.508198], [-0.124295, 51.508087], [-0.12442, 51.508153], [-0.124446, 51.508167], [-0.124457, 51.508173], [-0.124484, 51.508187], [-0.124333, 51.508292]]]}, "properties": {"Class": "Retail", "Subclass": "Retailf1", "GoadNumber": "447966", "CentreCode": "9033MM", "Fascia": "", "Activity": "UND/ALTN", "MiscText": "", "FasciaMas": "", "PrimaryAc": "UNDER ALTERATION", "SecondAc": "", "HoldingCo": "NON MULTIPLE", "TradingFls": 1, "StreetNum": "", "StreetName": "CHARING CROSS STATION", "Postcode": "WC2N 5HS", "PrecName": "", "PrecID": "", "UseClass": "E/F.2", "Category": "VACANT RETAIL/SERVICE", "TradeType": "G4B", "SurveyDate": "2025-10-16", "PubDate": "2025-12-01", "Area_ft2": 3000, "Area_m2": 280, "Centroid_X": "-0.124312", "Centroid_Y": "51.508193"}}, {"type": "Feature", "geometry": {"type": "Polygon", "coordinates": [[[-0.12514, 51.507995], [-0.125195, 51.508024], [-0.125149, 51.508057], [-0.125192, 51.50808], [-0.125156, 51.508105], [-0.125057, 51.508053], [-0.125094, 51.508027], [-0.12514, 51.507995]]]}, "properties": {"Class": "Retail", "Subclass": "Retailf1", "GoadNumber": "319851", "CentreCode": "9033MM", "Fascia": "", "Activity": "U/STN", "MiscText": "", "FasciaMas": "", "PrimaryAc": "UNDERGROUND STATION", "SecondAc": "", "HoldingCo": "NON MULTIPLE", "TradingFls": 1, "StreetNum": "", "StreetName": "STRAND", "Postcode": "WC2N 5HS", "PrecName": "", "PrecID": "", "UseClass": "UC", "Category": "TRANSPORT FACILITIES", "TradeType": "", "SurveyDate": "2025-10-16", "PubDate": "2025-12-01", "Area_ft2": 600, "Area_m2": 60, "Centroid_X": "-0.125133", "Centroid_Y": "51.508049"}}, {"type": "Feature", "geometry": {"type": "Polygon", "coordinates": [[[-0.122519, 51.512178], [-0.122476, 51.512142], [-0.122703, 51.512039], [-0.122747, 51.512077], [-0.122519, 51.512178]]]}, "properties": {"Class": "Retail", "Subclass": "Retailf1", "GoadNumber": "305965", "CentreCode": "9033MM", "Fascia": "", "Activity": "STORE", "MiscText": "", "FasciaMas": "", "PrimaryAc": "STORE", "SecondAc": "", "HoldingCo": "NON MULTIPLE", "TradingFls": 1, "StreetNum": "42", "StreetName": "THE MARKET, THE PIAZZA", "Postcode": "WC2E 8RF", "PrecName": "", "PrecID": "", "UseClass": "B8", "Category": "ENTRANCE & STORES", "TradeType": "", "SurveyDate": "2025-10-16", "PubDate": "2025-12-01", "Area_ft2": 1100, "Area_m2": 100, "Centroid_X": "-0.122612", "Centroid_Y": "51.512109"}}, {"type": "Feature", "geometry": {"type": "Polygon", "coordinates": [[[-0.124599, 51.508249], [-0.124562, 51.508229], [-0.124581, 51.508216], [-0.124618, 51.508236], [-0.124599, 51.508249]]]}, "properties": {"Class": "Retail", "Subclass": "Retailf1", "GoadNumber": "379663", "CentreCode": "9033MM", "Fascia": "", "Activity": "ATM", "MiscText": "", "FasciaMas": "ATM LOBBY", "PrimaryAc": "ATM LOBBY", "SecondAc": "", "HoldingCo": "NON MULTIPLE", "TradingFls": 1, "StreetNum": "", "StreetName": "CHARING CROSS STATION", "Postcode": "WC2N 5HS", "PrecName": "", "PrecID": "", "UseClass": "E", "Category": "RETAIL BANKS", "TradeType": "G3E", "SurveyDate": "2025-10-16", "PubDate": "2025-12-01", "Area_ft2": 100, "Area_m2": 10, "Centroid_X": "-0.12459", "Centroid_Y": "51.508233"}}, {"type": "Feature", "geometry": {"type": "Polygon", "coordinates": [[[-0.139188, 51.512754], [-0.139151, 51.512773], [-0.139045, 51.512828], [-0.138988, 51.512857], [-0.138895, 51.512783], [-0.138953, 51.512753], [-0.139014, 51.512721], [-0.139063, 51.512761], [-0.139144, 51.512719], [-0.139188, 51.512754]]]}, "properties": {"Class": "Retail", "Subclass": "Retailf1", "GoadNumber": "542156", "CentreCode": "9033MM", "Fascia": "ALTA", "Activity": "SPANISH#REST", "MiscText": "", "FasciaMas": "ALTA", "PrimaryAc": "SPANISH RESTAURANT", "SecondAc": "", "HoldingCo": "NON MULTIPLE", "TradingFls": 1, "StreetNum": "12 - 13", "StreetName": "KINGLY COURT, KINGLY STREET", "Postcode": "W1B 5PW", "PrecName": "", "PrecID": "", "UseClass": "E", "Category": "RESTAURANTS", "TradeType": "G3A", "SurveyDate": "2025-10-16", "PubDate": "2025-12-01", "Area_ft2": 1600, "Area_m2": 150, "Centroid_X": "-0.139031", "Centroid_Y": "51.512782"}}, {"type": "Feature", "geometry": {"type": "Polygon", "coordinates": [[[-0.122728, 51.511735], [-0.1227, 51.51171], [-0.122729, 51.511697], [-0.122684, 51.511656], [-0.122699, 51.511649], [-0.12272, 51.511668], [-0.122751, 51.511655], [-0.122728, 51.511637], [-0.122769, 51.511619], [-0.122789, 51.511637], [-0.122819, 51.511624], [-0.122798, 51.511606], [-0.122824, 51.511594], [-0.122869, 51.511636], [-0.122905, 51.511619], [-0.122932, 51.511644], [-0.122728, 51.511735]]]}, "properties": {"Class": "Retail", "Subclass": "Retailf1", "GoadNumber": "305974", "CentreCode": "9033MM", "Fascia": "", "Activity": "OFFICE", "MiscText": "", "FasciaMas": "", "PrimaryAc": "OFFICE", "SecondAc": "", "HoldingCo": "NON MULTIPLE", "TradingFls": 1, "StreetNum": "47", "StreetName": "THE MARKET, THE PIAZZA", "Postcode": "WC2E 8RF", "PrecName": "", "PrecID": "", "UseClass": "E", "Category": "OFFICES", "TradeType": "", "SurveyDate": "2025-10-16", "PubDate": "2025-12-01", "Area_ft2": 1200, "Area_m2": 110, "Centroid_X": "-0.122799", "Centroid_Y": "51.511663"}}, {"type": "Feature", "geometry": {"type": "Polygon", "coordinates": [[[-0.125156, 51.508105], [-0.125117, 51.508133], [-0.125004, 51.508212], [-0.124906, 51.50816], [-0.125057, 51.508053], [-0.125156, 51.508105]]]}, "properties": {"Class": "Retail", "Subclass": "Retailf1", "GoadNumber": "460438", "CentreCode": "9033MM", "Fascia": "", "Activity": "RAIL BKG OFF", "MiscText": "CHARING#CROSS", "FasciaMas": "", "PrimaryAc": "RAIL BOOKING OFFICE", "SecondAc": "", "HoldingCo": "NON MULTIPLE", "TradingFls": 1, "StreetNum": "", "StreetName": "CHARING CROSS STATION", "Postcode": "WC2N 5HS", "PrecName": "", "PrecID": "", "UseClass": "E/F.2", "Category": "TRANSPORT FACILITIES", "TradeType": "G3D", "SurveyDate": "2025-10-16", "PubDate": "2025-12-01", "Area_ft2": 1500, "Area_m2": 140, "Centroid_X": "-0.125031", "Centroid_Y": "51.508132"}}, {"type": "Feature", "geometry": {"type": "Polygon", "coordinates": [[[-0.123122, 51.512135], [-0.12316, 51.512169], [-0.122917, 51.512282], [-0.122866, 51.512235], [-0.122845, 51.512216], [-0.123088, 51.512105], [-0.123122, 51.512135]]]}, "properties": {"Class": "Retail", "Subclass": "Retailf1", "GoadNumber": "305962", "CentreCode": "9033MM", "Fascia": "", "Activity": "OFFICE", "MiscText": "", "FasciaMas": "", "PrimaryAc": "OFFICE", "SecondAc": "", "HoldingCo": "NON MULTIPLE", "TradingFls": 1, "StreetNum": "37", "StreetName": "THE MARKET, THE PIAZZA", "Postcode": "WC2E 8RA", "PrecName": "", "PrecID": "", "UseClass": "E", "Category": "OFFICES", "TradeType": "", "SurveyDate": "2025-10-16", "PubDate": "2025-12-01", "Area_ft2": 2000, "Area_m2": 180, "Centroid_X": "-0.123002", "Centroid_Y": "51.512193"}}, {"type": "Feature", "geometry": {"type": "Polygon", "coordinates": [[[-0.138743, 51.512503], [-0.138808, 51.51247], [-0.138867, 51.512518], [-0.138931, 51.512569], [-0.138867, 51.512602], [-0.138803, 51.512551], [-0.138743, 51.512503]]]}, "properties": {"Class": "Retail", "Subclass": "Retailf1", "GoadNumber": "542161", "CentreCode": "9033MM", "Fascia": "LIU XIAOMIAN", "Activity": "CHINESE REST", "MiscText": "", "FasciaMas": "LIU XIAOMIAN", "PrimaryAc": "CHINESE RESTAURANT", "SecondAc": "", "HoldingCo": "NON MULTIPLE", "TradingFls": 1, "StreetNum": "7 - 8", "StreetName": "KINGLY COURT, KINGLY STREET", "Postcode": "W1B 5PW", "PrecName": "", "PrecID": "", "UseClass": "E", "Category": "RESTAURANTS", "TradeType": "G3A", "SurveyDate": "2025-10-16", "PubDate": "2025-12-01", "Area_ft2": 900, "Area_m2": 80, "Centroid_X": "-0.138837", "Centroid_Y": "51.512536"}}, {"type": "Feature", "geometry": {"type": "Polygon", "coordinates": [[[-0.138967, 51.512683], [-0.138923, 51.512648], [-0.138885, 51.512618], [-0.13895, 51.512584], [-0.138988, 51.512615], [-0.139031, 51.51265], [-0.139078, 51.512688], [-0.139014, 51.512721], [-0.138967, 51.512683]]]}, "properties": {"Class": "Retail", "Subclass": "Retailf1", "GoadNumber": "542158", "CentreCode": "9033MM", "Fascia": "THE LIFE GODDESS", "Activity": "GREEK RESTAURANT", "MiscText": "", "FasciaMas": "THE LIFE GODDESS", "PrimaryAc": "GREEK RESTAURANT", "SecondAc": "", "HoldingCo": "NON MULTIPLE", "TradingFls": 1, "StreetNum": "9 - 11", "StreetName": "KINGLY COURT, KINGLY STREET", "Postcode": "W1B 5PW", "PrecName": "", "PrecID": "", "UseClass": "E", "Category": "RESTAURANTS", "TradeType": "G3A", "SurveyDate": "2025-10-16", "PubDate": "2025-12-01", "Area_ft2": 900, "Area_m2": 80, "Centroid_X": "-0.138982", "Centroid_Y": "51.512653"}}, {"type": "Feature", "geometry": {"type": "Polygon", "coordinates": [[[-0.123956, 51.507941], [-0.123983, 51.50792], [-0.124107, 51.507986], [-0.124081, 51.508005], [-0.123956, 51.507941]]]}, "properties": {"Class": "Retail", "Subclass": "Retailf1", "GoadNumber": "514171", "CentreCode": "9033MM", "Fascia": "", "Activity": "TAKE AWAY", "MiscText": "", "FasciaMas": "BENUGO ESPRESSO BAR", "PrimaryAc": "TAKE AWAY", "SecondAc": "", "HoldingCo": "NON MULTIPLE", "TradingFls": 1, "StreetNum": "", "StreetName": "CHARING CROSS STATION", "Postcode": "WC2N 5HS", "PrecName": "", "PrecID": "", "UseClass": "ESG", "Category": "FAST FOOD & TAKE AWAY", "TradeType": "G3A", "SurveyDate": "2025-10-16", "PubDate": "2025-12-01", "Area_ft2": 300, "Area_m2": 30, "Centroid_X": "-0.124031", "Centroid_Y": "51.507963"}}, {"type": "Feature", "geometry": {"type": "Polygon", "coordinates": [[[-0.125149, 51.508057], [-0.125195, 51.508024], [-0.125239, 51.508047], [-0.125192, 51.50808], [-0.125149, 51.508057]]]}, "properties": {"Class": "Retail", "Subclass": "Retailf1", "GoadNumber": "514162", "CentreCode": "9033MM", "Fascia": "ISMASH", "Activity": "TEL", "MiscText": "", "FasciaMas": "ISMASH", "PrimaryAc": "TELEPHONES", "SecondAc": "", "HoldingCo": "NON MULTIPLE", "TradingFls": 1, "StreetNum": "", "StreetName": "CHARING CROSS STATION", "Postcode": "WC2N 5HS", "PrecName": "", "PrecID": "", "UseClass": "E/F.2", "Category": "TELEPHONES & ACCESSORIES", "TradeType": "G2G", "SurveyDate": "2025-10-16", "PubDate": "2025-12-01", "Area_ft2": 200, "Area_m2": 20, "Centroid_X": "-0.125194", "Centroid_Y": "51.508052"}}, {"type": "Feature", "geometry": {"type": "Polygon", "coordinates": [[[-0.12252, 51.51183], [-0.122494, 51.511805], [-0.122447, 51.511764], [-0.122542, 51.511718], [-0.122565, 51.511737], [-0.122616, 51.511713], [-0.122596, 51.511695], [-0.122636, 51.511678], [-0.122657, 51.511697], [-0.122683, 51.511685], [-0.12266, 51.511667], [-0.122684, 51.511656], [-0.122729, 51.511697], [-0.1227, 51.51171], [-0.122728, 51.511735], [-0.122619, 51.511785], [-0.12252, 51.51183]]]}, "properties": {"Class": "Retail", "Subclass": "Retailf1", "GoadNumber": "305972", "CentreCode": "9033MM", "Fascia": "CAFFE CONCERTO", "Activity": "COFFEE SHOP", "MiscText": "", "FasciaMas": "CAFFE CONCERTO", "PrimaryAc": "COFFEE SHOP", "SecondAc": "", "HoldingCo": "NON MULTIPLE", "TradingFls": 1, "StreetNum": "48", "StreetName": "THE MARKET, THE PIAZZA", "Postcode": "WC2E 8RF", "PrecName": "", "PrecID": "", "UseClass": "E", "Category": "CAFES", "TradeType": "G3A", "SurveyDate": "2025-10-16", "PubDate": "2025-12-01", "Area_ft2": 1700, "Area_m2": 160, "Centroid_X": "-0.122594", "Centroid_Y": "51.511748"}}, {"type": "Feature", "geometry": {"type": "Polygon", "coordinates": [[[-0.124671, 51.508336], [-0.124664, 51.508329], [-0.124661, 51.50832], [-0.124659, 51.508311], [-0.12466, 51.508304], [-0.124662, 51.508297], [-0.124667, 51.508291], [-0.124672, 51.508288], [-0.124703, 51.508304], [-0.124743, 51.508276], [-0.124965, 51.508394], [-0.124912, 51.508432], [-0.124886, 51.50845], [-0.124671, 51.508336]]]}, "properties": {"Class": "Retail", "Subclass": "Retailf1", "GoadNumber": "309332", "CentreCode": "9033MM", "Fascia": "BOOTS", "Activity": "CHEMIST", "MiscText": "", "FasciaMas": "BOOTS", "PrimaryAc": "CHEMIST", "SecondAc": "", "HoldingCo": "ALLIANCE BOOTS", "TradingFls": 1, "StreetNum": "", "StreetName": "CHARING CROSS STATION", "Postcode": "WC2N 5HS", "PrecName": "", "PrecID": "", "UseClass": "E/F.2", "Category": "CHEMIST & DRUGSTORES", "TradeType": "G2K", "SurveyDate": "2025-10-16", "PubDate": "2025-12-01", "Area_ft2": 1900, "Area_m2": 180, "Centroid_X": "-0.124808", "Centroid_Y": "51.508361"}}, {"type": "Feature", "geometry": {"type": "Polygon", "coordinates": [[[-0.124854, 51.508197], [-0.124918, 51.50823], [-0.124876, 51.508263], [-0.124811, 51.508228], [-0.124854, 51.508197]]]}, "properties": {"Class": "Retail", "Subclass": "Retailf1", "GoadNumber": "514150", "CentreCode": "9033MM", "Fascia": "NERO#EXPRESS", "Activity": "COFF SH", "MiscText": "", "FasciaMas": "NERO EXPRESS", "PrimaryAc": "COFFEE SHOP", "SecondAc": "", "HoldingCo": "CAFFE NERO GROUP", "TradingFls": 1, "StreetNum": "", "StreetName": "CHARING CROSS STATION", "Postcode": "WC2N 5HS", "PrecName": "", "PrecID": "", "UseClass": "E", "Category": "CAFES", "TradeType": "G3A", "SurveyDate": "2025-10-16", "PubDate": "2025-12-01", "Area_ft2": 300, "Area_m2": 30, "Centroid_X": "-0.124865", "Centroid_Y": "51.50823"}}, {"type": "Feature", "geometry": {"type": "Polygon", "coordinates": [[[-0.123122, 51.512135], [-0.123088, 51.512105], [-0.123289, 51.512014], [-0.123317, 51.512038], [-0.123363, 51.512076], [-0.123194, 51.512153], [-0.123155, 51.512119], [-0.123122, 51.512135]]]}, "properties": {"Class": "Retail", "Subclass": "Retailf1", "GoadNumber": "305959", "CentreCode": "9033MM", "Fascia": "", "Activity": "OFFICE", "MiscText": "", "FasciaMas": "", "PrimaryAc": "OFFICE", "SecondAc": "", "HoldingCo": "NON MULTIPLE", "TradingFls": 1, "StreetNum": "38", "StreetName": "THE MARKET, THE PIAZZA", "Postcode": "WC2E 8RF", "PrecName": "", "PrecID": "", "UseClass": "E", "Category": "OFFICES", "TradeType": "", "SurveyDate": "2025-10-16", "PubDate": "2025-12-01", "Area_ft2": 1500, "Area_m2": 140, "Centroid_X": "-0.123231", "Centroid_Y": "51.512086"}}, {"type": "Feature", "geometry": {"type": "Polygon", "coordinates": [[[-0.124107, 51.508156], [-0.124124, 51.508143], [-0.124144, 51.508128], [-0.124165, 51.508114], [-0.124176, 51.508106], [-0.124188, 51.508097], [-0.124212, 51.50808], [-0.124235, 51.508091], [-0.124264, 51.50807], [-0.124295, 51.508087], [-0.124142, 51.508198], [-0.124087, 51.508169], [-0.124097, 51.508163], [-0.124107, 51.508156]]]}, "properties": {"Class": "Retail", "Subclass": "Retailf1", "GoadNumber": "309249", "CentreCode": "9033MM", "Fascia": "", "Activity": "UND/ALTN", "MiscText": "", "FasciaMas": "", "PrimaryAc": "UNDER ALTERATION", "SecondAc": "", "HoldingCo": "NON MULTIPLE", "TradingFls": 2, "StreetNum": "", "StreetName": "CHARING CROSS STATION", "Postcode": "WC2N 5HS", "PrecName": "", "PrecID": "", "UseClass": "E/F.2", "Category": "VACANT RETAIL/SERVICE", "TradeType": "G4B", "SurveyDate": "2025-10-16", "PubDate": "2025-12-01", "Area_ft2": 800, "Area_m2": 70, "Centroid_X": "-0.124188", "Centroid_Y": "51.508133"}}, {"type": "Feature", "geometry": {"type": "Polygon", "coordinates": [[[-0.12287, 51.511569], [-0.122885, 51.511563], [-0.122927, 51.511545], [-0.122948, 51.511564], [-0.122952, 51.511568], [-0.122952, 51.511568], [-0.122955, 51.511567], [-0.123015, 51.511539], [-0.123027, 51.511534], [-0.123028, 51.511533], [-0.123087, 51.511585], [-0.123035, 51.511609], [-0.122941, 51.511652], [-0.122932, 51.511644], [-0.122926, 51.511639], [-0.122905, 51.511619], [-0.122902, 51.511616], [-0.122881, 51.511599], [-0.122883, 51.511598], [-0.122893, 51.511594], [-0.122888, 51.511588], [-0.12287, 51.511569]]]}, "properties": {"Class": "Retail", "Subclass": "Retailf1", "GoadNumber": "305975", "CentreCode": "9033MM", "Fascia": "VYTA", "Activity": "ITALIAN REST", "MiscText": "", "FasciaMas": "VYTA", "PrimaryAc": "ITALIAN RESTAURANT", "SecondAc": "", "HoldingCo": "NON MULTIPLE", "TradingFls": 2, "StreetNum": "46", "StreetName": "THE MARKET, THE PIAZZA", "Postcode": "WC2E 8RF", "PrecName": "", "PrecID": "", "UseClass": "E", "Category": "RESTAURANTS", "TradeType": "G3A", "SurveyDate": "2025-10-16", "PubDate": "2025-12-01", "Area_ft2": 1100, "Area_m2": 100, "Centroid_X": "-0.122974", "Centroid_Y": "51.511589"}}, {"type": "Feature", "geometry": {"type": "Polygon", "coordinates": [[[-0.124918, 51.50823], [-0.125078, 51.508314], [-0.125001, 51.508369], [-0.124897, 51.508314], [-0.124929, 51.50829], [-0.124876, 51.508263], [-0.124918, 51.50823]]]}, "properties": {"Class": "Retail", "Subclass": "Retailf1", "GoadNumber": "447969", "CentreCode": "9033MM", "Fascia": "WHISTLESTOP#FOOD & WINE", "Activity": "", "MiscText": "", "FasciaMas": "WHISTLESTOP FOOD & WINE", "PrimaryAc": "CONVENIENCE STORE", "SecondAc": "", "HoldingCo": "SSP", "TradingFls": 1, "StreetNum": "", "StreetName": "CHARING CROSS STATION", "Postcode": "WC2N 5HS", "PrecName": "", "PrecID": "", "UseClass": "E/F.2", "Category": "CONVENIENCE STORES", "TradeType": "G1F", "SurveyDate": "2025-10-16", "PubDate": "2025-12-01", "Area_ft2": 1100, "Area_m2": 100, "Centroid_X": "-0.124973", "Centroid_Y": "51.508302"}}, {"type": "Feature", "geometry": {"type": "Polygon", "coordinates": [[[-0.122811, 51.512049], [-0.122764, 51.512069], [-0.122747, 51.512077], [-0.122703, 51.512039], [-0.12272, 51.512031], [-0.122768, 51.51201], [-0.122811, 51.512049]]]}, "properties": {"Class": "Retail", "Subclass": "Retailf1", "GoadNumber": "706849", "CentreCode": "9033MM", "Fascia": "N PEAL", "Activity": "CLO", "MiscText": "", "FasciaMas": "N PEAL", "PrimaryAc": "CLOTHING", "SecondAc": "", "HoldingCo": "NON MULTIPLE", "TradingFls": 1, "StreetNum": "", "StreetName": "COVENT GARDEN, COVENT GARDEN", "Postcode": "WC2E 8BE", "PrecName": "", "PrecID": "", "UseClass": "E/F.2", "Category": "CLOTHING GENERAL", "TradeType": "G2D", "SurveyDate": "2025-10-16", "PubDate": "2025-12-01", "Area_ft2": 300, "Area_m2": 30, "Centroid_X": "-0.122757", "Centroid_Y": "51.512043"}}, {"type": "Feature", "geometry": {"type": "Polygon", "coordinates": [[[-0.125004, 51.508212], [-0.125117, 51.508133], [-0.125156, 51.508105], [-0.125192, 51.50808], [-0.12531, 51.508149], [-0.125279, 51.508171], [-0.12524, 51.508199], [-0.125129, 51.508278], [-0.125004, 51.508212]]]}, "properties": {"Class": "Retail", "Subclass": "Retailf1", "GoadNumber": "447970", "CentreCode": "9033MM", "Fascia": "MARKS & SPENCER#SIMPLY FOOD", "Activity": "CONV STO", "MiscText": "", "FasciaMas": "MARKS & SPENCER SIMPLY FOOD", "PrimaryAc": "CONVENIENCE STORE", "SecondAc": "", "HoldingCo": "MARKS & SPENCER", "TradingFls": 1, "StreetNum": "", "StreetName": "CHARING CROSS STATION", "Postcode": "WC2N 5HS", "PrecName": "", "PrecID": "", "UseClass": "E/F.2", "Category": "CONVENIENCE STORES", "TradeType": "G1F", "SurveyDate": "2025-10-16", "PubDate": "2025-12-01", "Area_ft2": 2400, "Area_m2": 220, "Centroid_X": "-0.125158", "Centroid_Y": "51.50818"}}, {"type": "Feature", "geometry": {"type": "Polygon", "coordinates": [[[-0.123112, 51.511797], [-0.123202, 51.511875], [-0.12309, 51.511924], [-0.123046, 51.511885], [-0.12308, 51.51187], [-0.123077, 51.511867], [-0.123041, 51.511835], [-0.123005, 51.51185], [-0.122963, 51.511814], [-0.123019, 51.511789], [-0.123074, 51.511764], [-0.123112, 51.511797]]]}, "properties": {"Class": "Retail", "Subclass": "Retailf1", "GoadNumber": "305961", "CentreCode": "9033MM", "Fascia": "PUNCH & JUDY", "Activity": "PUBLIC HOUSE", "MiscText": "GREENE KING", "FasciaMas": "PUNCH & JUDY", "PrimaryAc": "PUBLIC HOUSE", "SecondAc": "", "HoldingCo": "SPIRIT GROUP", "TradingFls": 2, "StreetNum": "40", "StreetName": "THE MARKET, THE PIAZZA", "Postcode": "WC2E 8RF", "PrecName": "", "PrecID": "", "UseClass": "ESG", "Category": "PUBLIC HOUSES", "TradeType": "", "SurveyDate": "2025-10-16", "PubDate": "2025-12-01", "Area_ft2": 1400, "Area_m2": 130, "Centroid_X": "-0.123087", "Centroid_Y": "51.511842"}}, {"type": "Feature", "geometry": {"type": "Polygon", "coordinates": [[[-0.125239, 51.508047], [-0.125362, 51.508112], [-0.12531, 51.508149], [-0.125192, 51.50808], [-0.125239, 51.508047]]]}, "properties": {"Class": "Retail", "Subclass": "Retailf1", "GoadNumber": "447971", "CentreCode": "9033MM", "Fascia": "KRISPY KREME", "Activity": "TAKE AWAY", "MiscText": "", "FasciaMas": "KRISPY KREME", "PrimaryAc": "TAKE AWAY", "SecondAc": "", "HoldingCo": "KRISPY KREME UK", "TradingFls": 1, "StreetNum": "", "StreetName": "CHARING CROSS STATION", "Postcode": "WC2N 5HS", "PrecName": "", "PrecID": "", "UseClass": "ESG", "Category": "FAST FOOD & TAKE AWAY", "TradeType": "G3A", "SurveyDate": "2025-10-16", "PubDate": "2025-12-01", "Area_ft2": 600, "Area_m2": 60, "Centroid_X": "-0.125277", "Centroid_Y": "51.508098"}}, {"type": "Feature", "geometry": {"type": "Polygon", "coordinates": [[[-0.122423, 51.5118], [-0.122451, 51.511826], [-0.122494, 51.511805], [-0.12252, 51.51183], [-0.122303, 51.511927], [-0.122297, 51.511922], [-0.122274, 51.511902], [-0.122271, 51.5119], [-0.122246, 51.511878], [-0.122243, 51.511876], [-0.122226, 51.511862], [-0.122246, 51.511853], [-0.122263, 51.511867], [-0.122265, 51.511869], [-0.122268, 51.511872], [-0.122298, 51.511858], [-0.122295, 51.511856], [-0.122293, 51.511853], [-0.122277, 51.511839], [-0.122314, 51.511822], [-0.122335, 51.511838], [-0.122337, 51.51184], [-0.122371, 51.511825], [-0.122369, 51.511823], [-0.122351, 51.511807], [-0.122388, 51.51179], [-0.122407, 51.511806], [-0.122409, 51.511807], [-0.122423, 51.5118]]]}, "properties": {"Class": "Retail", "Subclass": "Retailf1", "GoadNumber": "305971", "CentreCode": "9033MM", "Fascia": "", "Activity": "STORE", "MiscText": "", "FasciaMas": "", "PrimaryAc": "STORE", "SecondAc": "", "HoldingCo": "NON MULTIPLE", "TradingFls": 1, "StreetNum": "49", "StreetName": "THE MARKET, THE PIAZZA", "Postcode": "WC2E 8RF", "PrecName": "", "PrecID": "", "UseClass": "B8", "Category": "ENTRANCE & STORES", "TradeType": "", "SurveyDate": "2025-10-16", "PubDate": "2025-12-01", "Area_ft2": 1400, "Area_m2": 130, "Centroid_X": "-0.122368", "Centroid_Y": "51.511856"}}, {"type": "Feature", "geometry": {"type": "Polygon", "coordinates": [[[-0.122768, 51.511902], [-0.122787, 51.511893], [-0.122793, 51.511898], [-0.122815, 51.511917], [-0.122826, 51.511926], [-0.122829, 51.511928], [-0.122728, 51.511972], [-0.122686, 51.511938], [-0.122687, 51.511937], [-0.122764, 51.511903], [-0.122768, 51.511902]]]}, "properties": {"Class": "Retail", "Subclass": "Retailf1", "GoadNumber": "305969", "CentreCode": "9033MM", "Fascia": "BENJAMIN#POLLOCKS#TOY SHOP", "Activity": "", "MiscText": "", "FasciaMas": "BENJAMIN POLLOCKS TOY SHOP", "PrimaryAc": "TOYS & GAMES", "SecondAc": "", "HoldingCo": "NON MULTIPLE", "TradingFls": 1, "StreetNum": "44", "StreetName": "THE MARKET, THE PIAZZA", "Postcode": "WC2E 8RF", "PrecName": "", "PrecID": "", "UseClass": "E/F.2", "Category": "TOYS, GAMES & HOBBIES", "TradeType": "G2N", "SurveyDate": "2025-10-16", "PubDate": "2025-12-01", "Area_ft2": 400, "Area_m2": 40, "Centroid_X": "-0.122757", "Centroid_Y": "51.511933"}}, {"type": "Feature", "geometry": {"type": "Polygon", "coordinates": [[[-0.125337, 51.507974], [-0.125367, 51.507989], [-0.125362, 51.507992], [-0.125326, 51.508018], [-0.125306, 51.508008], [-0.125283, 51.508024], [-0.125179, 51.507967], [-0.125193, 51.507957], [-0.125197, 51.507954], [-0.125242, 51.507923], [-0.125282, 51.507945], [-0.12529, 51.507947], [-0.125337, 51.507974]]]}, "properties": {"Class": "Retail", "Subclass": "Retailf1", "GoadNumber": "447973", "CentreCode": "9033MM", "Fascia": "EXCESS#BAGGAGE#COMPANY", "Activity": "LEFT LUGGAGE", "MiscText": "", "FasciaMas": "EXCESS BAGGAGE COMPANY", "PrimaryAc": "LEFT LUGGAGE", "SecondAc": "", "HoldingCo": "EXCESS BAGGAGE", "TradingFls": 1, "StreetNum": "", "StreetName": "CHARING CROSS STATION", "Postcode": "WC2N 5HS", "PrecName": "", "PrecID": "", "UseClass": "E", "Category": "OFFICES", "TradeType": "", "SurveyDate": "2025-10-16", "PubDate": "2025-12-01", "Area_ft2": 800, "Area_m2": 70, "Centroid_X": "-0.125271", "Centroid_Y": "51.507976"}}, {"type": "Feature", "geometry": {"type": "Polygon", "coordinates": [[[-0.122116, 51.511933], [-0.122121, 51.511938], [-0.122147, 51.511926], [-0.122152, 51.511924], [-0.12215, 51.511922], [-0.122147, 51.511919], [-0.122131, 51.511905], [-0.122169, 51.511886], [-0.122186, 51.511902], [-0.122188, 51.511904], [-0.12219, 51.511905], [-0.122211, 51.511897], [-0.122231, 51.511918], [-0.122234, 51.511921], [-0.122248, 51.511915], [-0.122274, 51.511902], [-0.122297, 51.511922], [-0.122303, 51.511927], [-0.122237, 51.511957], [-0.122202, 51.511974], [-0.122199, 51.511975], [-0.1222, 51.511976], [-0.122311, 51.512072], [-0.122338, 51.512096], [-0.122377, 51.512129], [-0.122422, 51.512167], [-0.122463, 51.512204], [-0.122536, 51.512267], [-0.122592, 51.512317], [-0.122603, 51.512327], [-0.122613, 51.512322], [-0.12268, 51.512291], [-0.122715, 51.512276], [-0.122845, 51.512216], [-0.122866, 51.512235], [-0.122827, 51.512253], [-0.12288, 51.512298], [-0.122736, 51.512366], [-0.122723, 51.512354], [-0.122708, 51.51234], [-0.122694, 51.512328], [-0.122653, 51.512345], [-0.122669, 51.512358], [-0.122685, 51.512372], [-0.122698, 51.512382], [-0.122576, 51.512438], [-0.122558, 51.512423], [-0.122519, 51.512441], [-0.12246, 51.512392], [-0.122466, 51.512389], [-0.122469, 51.512387], [-0.122496, 51.512375], [-0.122487, 51.512367], [-0.122486, 51.512366], [-0.122361, 51.512256], [-0.122351, 51.512247], [-0.122305, 51.512206], [-0.122281, 51.512185], [-0.122233, 51.512143], [-0.122223, 51.512134], [-0.12218, 51.512096], [-0.122102, 51.512027], [-0.122061, 51.512046], [-0.12206, 51.512046], [-0.122002, 51.511994], [-0.122007, 51.511992], [-0.122051, 51.511972], [-0.122084, 51.511958], [-0.122085, 51.511957], [-0.122083, 51.511954], [-0.12206, 51.511936], [-0.122099, 51.511919], [-0.122116, 51.511933]]]}, "properties": {"Class": "Retail", "Subclass": "Retailf1", "GoadNumber": "305963", "CentreCode": "9033MM", "Fascia": "SUSHISAMBA", "Activity": "ASIAN RESTAURANT", "MiscText": "", "FasciaMas": "SUSHISAMBA", "PrimaryAc": "ASIAN RESTAURANT", "SecondAc": "", "HoldingCo": "NON MULTIPLE", "TradingFls": 1, "StreetNum": "35", "StreetName": "THE MARKET, THE PIAZZA", "Postcode": "WC2E 8RF", "PrecName": "", "PrecID": "", "UseClass": "E", "Category": "RESTAURANTS", "TradeType": "G3A", "SurveyDate": "2025-10-16", "PubDate": "2025-12-01", "Area_ft2": 9000, "Area_m2": 830, "Centroid_X": "-0.122411", "Centroid_Y": "51.512186"}}, {"type": "Feature", "geometry": {"type": "Polygon", "coordinates": [[[-0.124625, 51.508262], [-0.124643, 51.508249], [-0.12468, 51.508269], [-0.124661, 51.508282], [-0.124625, 51.508262]]]}, "properties": {"Class": "Retail", "Subclass": "Retailf1", "GoadNumber": "514164", "CentreCode": "9033MM", "Fascia": "HOTEL#CHOCOLAT", "Activity": "CONF & BIS", "MiscText": "", "FasciaMas": "HOTEL CHOCOLAT", "PrimaryAc": "CONFECTIONERY & BISCUITS", "SecondAc": "", "HoldingCo": "HOTEL CHOCOLAT", "TradingFls": 1, "StreetNum": "", "StreetName": "CHARING CROSS STATION", "Postcode": "WC2N 5HS", "PrecName": "", "PrecID": "", "UseClass": "E/F.2", "Category": "BAKERS & CONFECTIONERS", "TradeType": "G1A", "SurveyDate": "2025-10-16", "PubDate": "2025-12-01", "Area_ft2": 100, "Area_m2": 10, "Centroid_X": "-0.124652", "Centroid_Y": "51.508266"}}, {"type": "Feature", "geometry": {"type": "Polygon", "coordinates": [[[-0.122829, 51.511928], [-0.122826, 51.511926], [-0.122815, 51.511917], [-0.122793, 51.511898], [-0.122787, 51.511893], [-0.122792, 51.511891], [-0.122794, 51.51189], [-0.122795, 51.511889], [-0.122865, 51.511858], [-0.122923, 51.511832], [-0.122928, 51.51183], [-0.122963, 51.511814], [-0.123005, 51.51185], [-0.12297, 51.511866], [-0.122966, 51.511868], [-0.122836, 51.511925], [-0.122829, 51.511928]]]}, "properties": {"Class": "Retail", "Subclass": "Retailf1", "GoadNumber": "648091", "CentreCode": "9033MM", "Fascia": "THE MOOMIN#SHOP", "Activity": "GIFTS", "MiscText": "", "FasciaMas": "THE MOOMIN SHOP", "PrimaryAc": "GIFTS", "SecondAc": "", "HoldingCo": "NON MULTIPLE", "TradingFls": 1, "StreetNum": "43", "StreetName": "THE MARKET, THE PIAZZA", "Postcode": "WC2E 8RF", "PrecName": "", "PrecID": "", "UseClass": "E/F.2", "Category": "CRAFTS, GIFTS, CHINA & GLASS", "TradeType": "G2I", "SurveyDate": "2025-10-16", "PubDate": "2025-12-01", "Area_ft2": 800, "Area_m2": 70, "Centroid_X": "-0.122896", "Centroid_Y": "51.511871"}}, {"type": "Feature", "geometry": {"type": "Polygon", "coordinates": [[[-0.132873, 51.510795], [-0.133232, 51.511272], [-0.133209, 51.511288], [-0.133187, 51.511302], [-0.133165, 51.511315], [-0.133047, 51.511307], [-0.133028, 51.511282], [-0.132993, 51.511235], [-0.132981, 51.511219], [-0.132966, 51.511197], [-0.132996, 51.511188], [-0.132929, 51.5111], [-0.132812, 51.510947], [-0.132779, 51.510957], [-0.132694, 51.510848], [-0.132873, 51.510795]]]}, "properties": {"Class": "Retail", "Subclass": "Retailf1", "GoadNumber": "696428", "CentreCode": "9033MM", "Fascia": "", "Activity": "UNDER ALTERATION", "MiscText": "", "FasciaMas": "", "PrimaryAc": "UNDER ALTERATION", "SecondAc": "", "HoldingCo": "NON MULTIPLE", "TradingFls": 1, "StreetNum": "", "StreetName": "TROCADERO CENTRE, COVENTRY STREET", "Postcode": "W1D 7DH", "PrecName": "TROCADERO CENTRE", "PrecID": "4105", "UseClass": "E/F.2", "Category": "VACANT RETAIL/SERVICE", "TradeType": "G4B", "SurveyDate": "2025-10-16", "PubDate": "2025-12-01", "Area_ft2": 7800, "Area_m2": 720, "Centroid_X": "-0.132975", "Centroid_Y": "51.511059"}}, {"type": "Feature", "geometry": {"type": "Polygon", "coordinates": [[[-0.132525, 51.510358], [-0.132569, 51.510352], [-0.132599, 51.510348], [-0.132645, 51.510341], [-0.132706, 51.510332], [-0.13282, 51.510313], [-0.132822, 51.510313], [-0.133071, 51.510635], [-0.133057, 51.510639], [-0.132923, 51.510678], [-0.132631, 51.510766], [-0.132429, 51.510505], [-0.132405, 51.510473], [-0.132368, 51.510424], [-0.132366, 51.510417], [-0.132367, 51.510411], [-0.132369, 51.510405], [-0.132374, 51.510397], [-0.132383, 51.510391], [-0.132388, 51.510387], [-0.132398, 51.510382], [-0.132409, 51.510378], [-0.132417, 51.510375], [-0.132525, 51.510358]]]}, "properties": {"Class": "Retail", "Subclass": "Retailf1", "GoadNumber": "696430", "CentreCode": "9033MM", "Fascia": "", "Activity": "VACANT RESTAURANT", "MiscText": "", "FasciaMas": "", "PrimaryAc": "VACANT RESTAURANT", "SecondAc": "", "HoldingCo": "NON MULTIPLE", "TradingFls": 1, "StreetNum": "", "StreetName": "TROCADERO CENTRE, COVENTRY STREET", "Postcode": "W1D 7DH", "PrecName": "TROCADERO CENTRE", "PrecID": "4105", "UseClass": "E", "Category": "VACANT RETAIL/SERVICE", "TradeType": "G4B", "SurveyDate": "2025-10-16", "PubDate": "2025-12-01", "Area_ft2": 15700, "Area_m2": 1460, "Centroid_X": "-0.132711", "Centroid_Y": "51.510527"}}, {"type": "Feature", "geometry": {"type": "Polygon", "coordinates": [[[-0.138421, 51.512525], [-0.138431, 51.51252], [-0.13854, 51.512464], [-0.138594, 51.512436], [-0.138634, 51.512416], [-0.138699, 51.512382], [-0.138703, 51.512385], [-0.138751, 51.512423], [-0.138808, 51.51247], [-0.138743, 51.512503], [-0.13874, 51.512504], [-0.138706, 51.512522], [-0.138705, 51.512523], [-0.138648, 51.512552], [-0.138632, 51.51256], [-0.138624, 51.512564], [-0.138621, 51.512566], [-0.13853, 51.512612], [-0.138421, 51.512525]]]}, "properties": {"Class": "Retail", "Subclass": "Retailf1", "GoadNumber": "542150", "CentreCode": "9033MM", "Fascia": "PARADISO", "Activity": "BAR & RESTAURANT", "MiscText": "", "FasciaMas": "PARADISO", "PrimaryAc": "BAR & RESTAURANT", "SecondAc": "", "HoldingCo": "NON MULTIPLE", "TradingFls": 1, "StreetNum": "5 - 6", "StreetName": "KINGLY COURT, KINGLY STREET", "Postcode": "W1B 5PW", "PrecName": "", "PrecID": "", "UseClass": "ESG", "Category": "BARS & WINE BARS", "TradeType": "", "SurveyDate": "2025-10-16", "PubDate": "2025-12-01", "Area_ft2": 3300, "Area_m2": 310, "Centroid_X": "-0.138615", "Centroid_Y": "51.512497"}}, {"type": "Feature", "geometry": {"type": "Polygon", "coordinates": [[[-0.138733, 51.512656], [-0.138708, 51.512669], [-0.138701, 51.512672], [-0.138676, 51.512685], [-0.13867, 51.512688], [-0.138653, 51.512697], [-0.13865, 51.512694], [-0.138645, 51.512689], [-0.138642, 51.512688], [-0.138637, 51.512684], [-0.138629, 51.512677], [-0.138614, 51.512684], [-0.138611, 51.512686], [-0.138509, 51.512738], [-0.138463, 51.512695], [-0.13843, 51.512664], [-0.138528, 51.512613], [-0.13853, 51.512612], [-0.138621, 51.512566], [-0.138624, 51.512564], [-0.138626, 51.512566], [-0.13866, 51.512594], [-0.138692, 51.512619], [-0.138696, 51.512623], [-0.138736, 51.512654], [-0.138733, 51.512656]]]}, "properties": {"Class": "Retail", "Subclass": "Retailf1", "GoadNumber": "542151", "CentreCode": "9033MM", "Fascia": "SENOR CEVICHE", "Activity": "AMERICAN#RESTAURANT", "MiscText": "", "FasciaMas": "SENOR CEVICHE", "PrimaryAc": "AMERICAN RESTAURANT", "SecondAc": "", "HoldingCo": "NON MULTIPLE", "TradingFls": 1, "StreetNum": "1 - 4", "StreetName": "KINGLY COURT, KINGLY STREET", "Postcode": "W1B 5PW", "PrecName": "", "PrecID": "", "UseClass": "E", "Category": "RESTAURANTS", "TradeType": "G3A", "SurveyDate": "2025-10-16", "PubDate": "2025-12-01", "Area_ft2": 2100, "Area_m2": 200, "Centroid_X": "-0.138581", "Centroid_Y": "51.512652"}}, {"type": "Feature", "geometry": {"type": "Polygon", "coordinates": [[[-0.132923, 51.510678], [-0.13297, 51.510665], [-0.133057, 51.510639], [-0.13308, 51.510669], [-0.133092, 51.510685], [-0.133162, 51.510778], [-0.133219, 51.510854], [-0.133144, 51.510971], [-0.133053, 51.51085], [-0.132958, 51.510724], [-0.132934, 51.510692], [-0.132923, 51.510678]]]}, "properties": {"Class": "Retail", "Subclass": "Retailf1", "GoadNumber": "385687", "CentreCode": "9033MM", "Fascia": "", "Activity": "UNDER ALTERATION", "MiscText": "", "FasciaMas": "", "PrimaryAc": "UNDER ALTERATION", "SecondAc": "", "HoldingCo": "NON MULTIPLE", "TradingFls": 1, "StreetNum": "C", "StreetName": "TROCADERO CENTRE, COVENTRY STREET", "Postcode": "W1D 7DH", "PrecName": "TROCADERO CENTRE", "PrecID": "4105", "UseClass": "E/F.2", "Category": "VACANT RETAIL/SERVICE", "TradeType": "G4B", "SurveyDate": "2025-10-16", "PubDate": "2025-12-01", "Area_ft2": 3500, "Area_m2": 320, "Centroid_X": "-0.133083", "Centroid_Y": "51.510788"}}, {"type": "Feature", "geometry": {"type": "Polygon", "coordinates": [[[-0.138794, 51.512834], [-0.1387, 51.512759], [-0.138692, 51.512753], [-0.138656, 51.512723], [-0.138692, 51.512705], [-0.138697, 51.512702], [-0.138729, 51.512686], [-0.138757, 51.512672], [-0.138794, 51.512701], [-0.138867, 51.51276], [-0.138806, 51.512792], [-0.138834, 51.512814], [-0.138794, 51.512834]]]}, "properties": {"Class": "Retail", "Subclass": "Retailf1", "GoadNumber": "542153", "CentreCode": "9033MM", "Fascia": "OKA#RESTAURANTS", "Activity": "ASIAN REST", "MiscText": "", "FasciaMas": "OKA RESTAURANTS", "PrimaryAc": "ASIAN RESTAURANT", "SecondAc": "", "HoldingCo": "NON MULTIPLE", "TradingFls": 2, "StreetNum": "14 - 16", "StreetName": "KINGLY COURT, KINGLY STREET", "Postcode": "W1B 5PW", "PrecName": "", "PrecID": "", "UseClass": "E", "Category": "RESTAURANTS", "TradeType": "G3A", "SurveyDate": "2025-10-16", "PubDate": "2025-12-01", "Area_ft2": 1300, "Area_m2": 130, "Centroid_X": "-0.138765", "Centroid_Y": "51.512748"}}, {"type": "Feature", "geometry": {"type": "Polygon", "coordinates": [[[-0.133473, 51.510314], [-0.133602, 51.510486], [-0.133645, 51.510543], [-0.133772, 51.510711], [-0.133761, 51.510715], [-0.133774, 51.510732], [-0.13379, 51.510737], [-0.133796, 51.51074], [-0.133539, 51.511013], [-0.133323, 51.510735], [-0.133279, 51.510733], [-0.133183, 51.510607], [-0.13322, 51.510596], [-0.133091, 51.510424], [-0.133473, 51.510314]]]}, "properties": {"Class": "Retail", "Subclass": "Retailf1", "GoadNumber": "696427", "CentreCode": "9033MM", "Fascia": "PICTURE HOUSE CENTRAL", "Activity": "CINEMA", "MiscText": "", "FasciaMas": "PICTURE HOUSE CENTRAL", "PrimaryAc": "CINEMA", "SecondAc": "", "HoldingCo": "NON MULTIPLE", "TradingFls": 2, "StreetNum": "", "StreetName": "TROCADERO CENTRE, COVENTRY STREET", "Postcode": "W1D 7DH", "PrecName": "TROCADERO CENTRE", "PrecID": "4105", "UseClass": "F.2", "Category": "CINEMAS, THEATRES & CONCERT HALLS", "TradeType": "", "SurveyDate": "2025-10-16", "PubDate": "2025-12-01", "Area_ft2": 20100, "Area_m2": 1870, "Centroid_X": "-0.133459", "Centroid_Y": "51.510629"}}, {"type": "Feature", "geometry": {"type": "Polygon", "coordinates": [[[-0.125193, 51.507957], [-0.125158, 51.507939], [-0.125099, 51.507906], [-0.125149, 51.507871], [-0.125209, 51.507905], [-0.125211, 51.507906], [-0.125242, 51.507923], [-0.125197, 51.507954], [-0.125193, 51.507957]]]}, "properties": {"Class": "Retail", "Subclass": "Retailf1", "GoadNumber": "447978", "CentreCode": "9033MM", "Fascia": "UPPER#CRUST", "Activity": "S/W BAR", "MiscText": "", "FasciaMas": "UPPER CRUST", "PrimaryAc": "SANDWICH BAR", "SecondAc": "", "HoldingCo": "SSP", "TradingFls": 1, "StreetNum": "", "StreetName": "CHARING CROSS STATION", "Postcode": "WC2N 5HS", "PrecName": "", "PrecID": "", "UseClass": "E/F.2", "Category": "FAST FOOD & TAKE AWAY", "TradeType": "G3A", "SurveyDate": "2025-10-16", "PubDate": "2025-12-01", "Area_ft2": 500, "Area_m2": 40, "Centroid_X": "-0.12517", "Centroid_Y": "51.507914"}}, {"type": "Feature", "geometry": {"type": "Polygon", "coordinates": [[[-0.124994, 51.507786], [-0.125097, 51.507843], [-0.125109, 51.507849], [-0.125149, 51.507871], [-0.125099, 51.507906], [-0.125047, 51.507879], [-0.125013, 51.507902], [-0.125011, 51.507901], [-0.125006, 51.507901], [-0.125001, 51.507901], [-0.124995, 51.507901], [-0.12499, 51.507903], [-0.124984, 51.507904], [-0.124979, 51.507906], [-0.124975, 51.507908], [-0.124972, 51.50791], [-0.124911, 51.507877], [-0.124927, 51.507866], [-0.124904, 51.507849], [-0.124942, 51.507822], [-0.124994, 51.507786]]]}, "properties": {"Class": "Retail", "Subclass": "Retailf1", "GoadNumber": "447980", "CentreCode": "9033MM", "Fascia": "WHSMITH", "Activity": "N/A & BKS", "MiscText": "", "FasciaMas": "WHSMITH", "PrimaryAc": "NEWSAGENT & BOOKS", "SecondAc": "", "HoldingCo": "WHSMITH", "TradingFls": 1, "StreetNum": "", "StreetName": "CHARING CROSS STATION", "Postcode": "WC2N 5HS", "PrecName": "", "PrecID": "", "UseClass": "E/F.2", "Category": "NEWSAGENTS & STATIONERS", "TradeType": "G2F", "SurveyDate": "2025-10-16", "PubDate": "2025-12-01", "Area_ft2": 1400, "Area_m2": 130, "Centroid_X": "-0.125015", "Centroid_Y": "51.507855"}}, {"type": "Feature", "geometry": {"type": "Polygon", "coordinates": [[[-0.122435, 51.512104], [-0.122377, 51.512129], [-0.122338, 51.512096], [-0.122397, 51.512071], [-0.122435, 51.512104]]]}, "properties": {"Class": "Retail", "Subclass": "Non Retail Buildingsf1", "GoadNumber": "", "CentreCode": "9033MM", "Fascia": "", "Activity": "ENT", "MiscText": "", "FasciaMas": "", "PrimaryAc": "ENTRANCE", "SecondAc": "", "HoldingCo": "NON MULTIPLE", "TradingFls": 1, "StreetNum": "", "StreetName": "THE MARKET, THE PIAZZA", "Postcode": "WC2E 8RB", "PrecName": "", "PrecID": "", "UseClass": "UC", "Category": "ENTRANCE & STORES", "TradeType": "", "SurveyDate": "2025-10-16", "PubDate": "2025-12-01", "Area_ft2": 200, "Area_m2": 20, "Centroid_X": "-0.122387", "Centroid_Y": "51.5121"}}, {"type": "Feature", "geometry": {"type": "Polygon", "coordinates": [[[-0.122728, 51.511972], [-0.122678, 51.511995], [-0.122637, 51.51196], [-0.122686, 51.511938], [-0.122728, 51.511972]]]}, "properties": {"Class": "Retail", "Subclass": "Non Retail Buildingsf1", "GoadNumber": "", "CentreCode": "9033MM", "Fascia": "", "Activity": "ENT", "MiscText": "", "FasciaMas": "", "PrimaryAc": "ENTRANCE", "SecondAc": "", "HoldingCo": "NON MULTIPLE", "TradingFls": 1, "StreetNum": "", "StreetName": "THE MARKET, THE PIAZZA", "Postcode": "WC2E 8RB", "PrecName": "", "PrecID": "", "UseClass": "UC", "Category": "ENTRANCE & STORES", "TradeType": "", "SurveyDate": "2025-10-16", "PubDate": "2025-12-01", "Area_ft2": 200, "Area_m2": 20, "Centroid_X": "-0.122682", "Centroid_Y": "51.511966"}}, {"type": "Feature", "geometry": {"type": "Polygon", "coordinates": [[[-0.122866, 51.512235], [-0.122917, 51.512282], [-0.12288, 51.512298], [-0.122827, 51.512253], [-0.122866, 51.512235]]]}, "properties": {"Class": "Retail", "Subclass": "Non Retail Buildingsf1", "GoadNumber": "", "CentreCode": "9033MM", "Fascia": "", "Activity": "ENT", "MiscText": "", "FasciaMas": "", "PrimaryAc": "ENTRANCE", "SecondAc": "", "HoldingCo": "NON MULTIPLE", "TradingFls": 1, "StreetNum": "", "StreetName": "THE MARKET, THE PIAZZA", "Postcode": "WC2E 8RB", "PrecName": "", "PrecID": "", "UseClass": "UC", "Category": "ENTRANCE & STORES", "TradeType": "", "SurveyDate": "2025-10-16", "PubDate": "2025-12-01", "Area_ft2": 200, "Area_m2": 20, "Centroid_X": "-0.122872", "Centroid_Y": "51.512267"}}, {"type": "Feature", "geometry": {"type": "Polygon", "coordinates": [[[-0.12309, 51.511924], [-0.123055, 51.511939], [-0.12301, 51.511901], [-0.123046, 51.511885], [-0.12309, 51.511924]]]}, "properties": {"Class": "Retail", "Subclass": "Non Retail Buildingsf1", "GoadNumber": "", "CentreCode": "9033MM", "Fascia": "", "Activity": "ENT", "MiscText": "", "FasciaMas": "", "PrimaryAc": "ENTRANCE", "SecondAc": "", "HoldingCo": "NON MULTIPLE", "TradingFls": 1, "StreetNum": "", "StreetName": "THE MARKET, THE PIAZZA", "Postcode": "WC2E 8RB", "PrecName": "", "PrecID": "", "UseClass": "UC", "Category": "ENTRANCE & STORES", "TradeType": "", "SurveyDate": "2025-10-16", "PubDate": "2025-12-01", "Area_ft2": 200, "Area_m2": 20, "Centroid_X": "-0.12305", "Centroid_Y": "51.511912"}}, {"type": "Feature", "geometry": {"type": "Polygon", "coordinates": [[[-0.122519, 51.512178], [-0.122463, 51.512204], [-0.122422, 51.512167], [-0.122476, 51.512142], [-0.122519, 51.512178]]]}, "properties": {"Class": "Retail", "Subclass": "Non Retail Buildingsf1", "GoadNumber": "", "CentreCode": "9033MM", "Fascia": "", "Activity": "ENT", "MiscText": "", "FasciaMas": "", "PrimaryAc": "ENTRANCE", "SecondAc": "", "HoldingCo": "NON MULTIPLE", "TradingFls": 1, "StreetNum": "", "StreetName": "THE MARKET, THE PIAZZA", "Postcode": "WC2E 8RB", "PrecName": "", "PrecID": "", "UseClass": "UC", "Category": "ENTRANCE & STORES", "TradeType": "", "SurveyDate": "2025-10-16", "PubDate": "2025-12-01", "Area_ft2": 300, "Area_m2": 20, "Centroid_X": "-0.12247", "Centroid_Y": "51.512173"}}, {"type": "Feature", "geometry": {"type": "Polygon", "coordinates": [[[-0.122736, 51.512366], [-0.122698, 51.512382], [-0.122653, 51.512345], [-0.122694, 51.512328], [-0.122736, 51.512366]]]}, "properties": {"Class": "Retail", "Subclass": "Non Retail Buildingsf1", "GoadNumber": "", "CentreCode": "9033MM", "Fascia": "", "Activity": "ENT", "MiscText": "", "FasciaMas": "", "PrimaryAc": "ENTRANCE", "SecondAc": "", "HoldingCo": "NON MULTIPLE", "TradingFls": 1, "StreetNum": "", "StreetName": "THE MARKET, THE PIAZZA", "Postcode": "WC2E 8RB", "PrecName": "", "PrecID": "", "UseClass": "UC", "Category": "ENTRANCE & STORES", "TradeType": "", "SurveyDate": "2025-10-16", "PubDate": "2025-12-01", "Area_ft2": 200, "Area_m2": 20, "Centroid_X": "-0.122695", "Centroid_Y": "51.512355"}}, {"type": "Feature", "geometry": {"type": "Polygon", "coordinates": [[[-0.123363, 51.512076], [-0.123317, 51.512038], [-0.123363, 51.512018], [-0.123407, 51.512057], [-0.123363, 51.512076]]]}, "properties": {"Class": "Retail", "Subclass": "Non Retail Buildingsf1", "GoadNumber": "", "CentreCode": "9033MM", "Fascia": "", "Activity": "ENT", "MiscText": "", "FasciaMas": "", "PrimaryAc": "ENTRANCE", "SecondAc": "", "HoldingCo": "NON MULTIPLE", "TradingFls": 1, "StreetNum": "", "StreetName": "THE MARKET, THE PIAZZA", "Postcode": "WC2E 8RB", "PrecName": "", "PrecID": "", "UseClass": "UC", "Category": "ENTRANCE & STORES", "TradeType": "", "SurveyDate": "2025-10-16", "PubDate": "2025-12-01", "Area_ft2": 200, "Area_m2": 20, "Centroid_X": "-0.123362", "Centroid_Y": "51.512047"}}, {"type": "Feature", "geometry": {"type": "Polygon", "coordinates": [[[-0.12316, 51.512169], [-0.123122, 51.512135], [-0.123155, 51.512119], [-0.123194, 51.512153], [-0.12316, 51.512169]]]}, "properties": {"Class": "Retail", "Subclass": "Non Retail Buildingsf1", "GoadNumber": "", "CentreCode": "9033MM", "Fascia": "", "Activity": "ENT", "MiscText": "", "FasciaMas": "", "PrimaryAc": "ENTRANCE", "SecondAc": "", "HoldingCo": "NON MULTIPLE", "TradingFls": 1, "StreetNum": "", "StreetName": "THE MARKET, THE PIAZZA", "Postcode": "WC2E 8RB", "PrecName": "", "PrecID": "", "UseClass": "UC", "Category": "ENTRANCE & STORES", "TradeType": "", "SurveyDate": "2025-10-16", "PubDate": "2025-12-01", "Area_ft2": 100, "Area_m2": 10, "Centroid_X": "-0.123158", "Centroid_Y": "51.512144"}}]}