{"type": "FeatureCollection", "features": [{"type": "Feature", "geometry": {"type": "Polygon", "coordinates": [[[-0.138885, 51.512618], [-0.13895, 51.512584], [-0.138995, 51.512621], [-0.139078, 51.512688], [-0.139014, 51.512721], [-0.13893, 51.512654], [-0.138885, 51.512618]]]}, "properties": {"Class": "Retail", "Subclass": "Retailf2", "GoadNumber": "542178", "CentreCode": "9033MM", "Fascia": "LE BAB", "Activity": "MIDDLE#EASTERN RESTAURANT", "MiscText": "", "FasciaMas": "LE BAB", "PrimaryAc": "MIDDLE EASTERN RESTAURANT", "SecondAc": "", "HoldingCo": "NON MULTIPLE", "TradingFls": 1, "StreetNum": "10", "StreetName": "KINGLY COURT, KINGLY STREET", "Postcode": "W1B 5PW", "PrecName": "", "PrecID": "", "UseClass": "E", "Category": "RESTAURANTS", "TradeType": "G3A", "SurveyDate": "2025-10-16", "PubDate": "2025-12-01", "Area_ft2": 900, "Area_m2": 80, "Centroid_X": "-0.138981", "Centroid_Y": "51.512653"}}, {"type": "Feature", "geometry": {"type": "Polygon", "coordinates": [[[-0.138825, 51.512726], [-0.138867, 51.51276], [-0.1388, 51.51279], [-0.138761, 51.512807], [-0.138725, 51.512777], [-0.138692, 51.51275], [-0.138648, 51.512713], [-0.138719, 51.512679], [-0.138748, 51.512664], [-0.138792, 51.512699], [-0.138825, 51.512726]]]}, "properties": {"Class": "Retail", "Subclass": "Retailf2", "GoadNumber": "542164", "CentreCode": "9033MM", "Fascia": "DONIA", "Activity": "RESTAURANT", "MiscText": "", "FasciaMas": "DONIA", "PrimaryAc": "RESTAURANT", "SecondAc": "", "HoldingCo": "NON MULTIPLE", "TradingFls": 1, "StreetNum": "15 - 16", "StreetName": "KINGLY COURT, KINGLY STREET", "Postcode": "W1B 5PW", "PrecName": "", "PrecID": "", "UseClass": "E", "Category": "RESTAURANTS", "TradeType": "G3A", "SurveyDate": "2025-10-16", "PubDate": "2025-12-01", "Area_ft2": 1300, "Area_m2": 120, "Centroid_X": "-0.138757", "Centroid_Y": "51.512736"}}, {"type": "Feature", "geometry": {"type": "Polygon", "coordinates": [[[-0.139014, 51.512721], [-0.139107, 51.512796], [-0.139051, 51.512825], [-0.138988, 51.512857], [-0.138895, 51.512783], [-0.138958, 51.51275], [-0.139014, 51.512721]]]}, "properties": {"Class": "Retail", "Subclass": "Retailf2", "GoadNumber": "542183", "CentreCode": "9033MM", "Fascia": "KOREAN#DINNER#PARTY", "Activity": "ASIAN REST", "MiscText": "", "FasciaMas": "KOREAN DINNER PARTY", "PrimaryAc": "ASIAN RESTAURANT", "SecondAc": "", "HoldingCo": "NON MULTIPLE", "TradingFls": 1, "StreetNum": "12", "StreetName": "KINGLY COURT, KINGLY STREET", "Postcode": "W1B 5PW", "PrecName": "", "PrecID": "", "UseClass": "E", "Category": "RESTAURANTS", "TradeType": "G3A", "SurveyDate": "2025-10-16", "PubDate": "2025-12-01", "Area_ft2": 1200, "Area_m2": 110, "Centroid_X": "-0.139001", "Centroid_Y": "51.512789"}}, {"type": "Feature", "geometry": {"type": "Polygon", "coordinates": [[[-0.133048, 51.511307], [-0.133028, 51.511282], [-0.132981, 51.511219], [-0.132966, 51.511197], [-0.132996, 51.511188], [-0.132929, 51.5111], [-0.132812, 51.510947], [-0.132779, 51.510957], [-0.132694, 51.510848], [-0.132368, 51.510424], [-0.132369, 51.510405], [-0.132388, 51.510387], [-0.132417, 51.510375], [-0.132706, 51.510332], [-0.133013, 51.510284], [-0.133161, 51.510259], [-0.133398, 51.510214], [-0.133772, 51.510711], [-0.133761, 51.510715], [-0.133774, 51.510732], [-0.133796, 51.51074], [-0.133577, 51.510973], [-0.133539, 51.511013], [-0.13344, 51.511107], [-0.133358, 51.511179], [-0.133232, 51.511272], [-0.133187, 51.511302], [-0.133165, 51.511315], [-0.133048, 51.511307]]]}, "properties": {"Class": "Retail", "Subclass": "Retailf2", "GoadNumber": "696185", "CentreCode": "9033MM", "Fascia": "THE ZEDWELL", "Activity": "HOTEL", "MiscText": "", "FasciaMas": "THE ZEDWELL", "PrimaryAc": "HOTEL", "SecondAc": "", "HoldingCo": "NON MULTIPLE", "TradingFls": 1, "StreetNum": "", "StreetName": "TROCADERO CENTRE, COVENTRY STREET", "Postcode": "W1D 7DH", "PrecName": "TROCADERO CENTRE", "PrecID": "4105", "UseClass": "C1", "Category": "HOTELS & GUEST HOUSES", "TradeType": "", "SurveyDate": "2025-10-16", "PubDate": "2025-12-01", "Area_ft2": 74400, "Area_m2": 6910, "Centroid_X": "-0.133123", "Centroid_Y": "51.510701"}}, {"type": "Feature", "geometry": {"type": "Polygon", "coordinates": [[[-0.138626, 51.512566], [-0.138656, 51.51259], [-0.138689, 51.512617], [-0.138692, 51.512619], [-0.138726, 51.512649], [-0.138725, 51.512649], [-0.138699, 51.512662], [-0.138668, 51.512678], [-0.138645, 51.512689], [-0.138629, 51.512697], [-0.138625, 51.512694], [-0.138624, 51.512693], [-0.138614, 51.512684], [-0.138592, 51.512667], [-0.138559, 51.512639], [-0.138529, 51.512614], [-0.138528, 51.512613], [-0.138421, 51.512525], [-0.138431, 51.51252], [-0.13854, 51.512464], [-0.138554, 51.512456], [-0.138665, 51.512543], [-0.138648, 51.512552], [-0.138624, 51.512564], [-0.138626, 51.512566]]]}, "properties": {"Class": "Retail", "Subclass": "Retailf2", "GoadNumber": "542169", "CentreCode": "9033MM", "Fascia": "DARJEELING EXPRESS", "Activity": "INDIAN REST", "MiscText": "", "FasciaMas": "DARJEELING EXPRESS", "PrimaryAc": "INDIAN RESTAURANT", "SecondAc": "", "HoldingCo": "NON MULTIPLE", "TradingFls": 1, "StreetNum": "2", "StreetName": "KINGLY COURT, KINGLY STREET", "Postcode": "W1B 5PW", "PrecName": "", "PrecID": "", "UseClass": "E", "Category": "RESTAURANTS", "TradeType": "G3A", "SurveyDate": "2025-10-16", "PubDate": "2025-12-01", "Area_ft2": 2700, "Area_m2": 250, "Centroid_X": "-0.138577", "Centroid_Y": "51.512573"}}, {"type": "Feature", "geometry": {"type": "Polygon", "coordinates": [[[-0.138665, 51.512543], [-0.138554, 51.512456], [-0.138699, 51.512383], [-0.138703, 51.512385], [-0.138931, 51.512569], [-0.138867, 51.512602], [-0.13874, 51.512504], [-0.138665, 51.512543]]]}, "properties": {"Class": "Retail", "Subclass": "Retailf2", "GoadNumber": "2023066", "CentreCode": "9033MM", "Fascia": "IMAD`S SYRIAN KITCHEN", "Activity": "MID EAST REST", "MiscText": "", "FasciaMas": "IMAD`S SYRIAN KITCHEN", "PrimaryAc": "MIDDLE EASTERN RESTAURANT", "SecondAc": "", "HoldingCo": "NON MULTIPLE", "TradingFls": 1, "StreetNum": "", "StreetName": "KINGLY COURT, KINGLY STREET", "Postcode": "W1B 5PW", "PrecName": "", "PrecID": "", "UseClass": "E", "Category": "RESTAURANTS", "TradeType": "G3A", "SurveyDate": "2025-10-16", "PubDate": "2025-12-01", "Area_ft2": 2600, "Area_m2": 240, "Centroid_X": "-0.138734", "Centroid_Y": "51.512488"}}]}